{"type": "FeatureCollection", "metadata": {"generado": "2026-10-01", "municipio": "Arganda del Rey", "source": "OpenStreetMap via Overpass API (overpass-api.de/api/interpreter)", "url": "https://overpass-api.de/api/interpreter", "license": "ODbL 1.0 (Open Data Commons Open Database License)", "attribution": "© OpenStreetMap contributors"}, "features": [{"type": "Feature", "geometry": {"type": "Polygon", "coordinates": [[[-3.4262376, 40.3497007], [-3.4263886, 40.3495403], [-3.4257451, 40.3493042], [-3.4267545, 40.3472409], [-3.4285691, 40.3455765], [-3.4289389, 40.344476], [-3.4292826, 40.3429702], [-3.4311446, 40.3395218], [-3.4315862, 40.3362066], [-3.4311986, 40.335834], [-3.4316031, 40.3354293], [-3.4311312, 40.3345878], [-3.4315368, 40.3346848], [-3.4315525, 40.3335664], [-3.4313587, 40.3327634], [-3.4315188, 40.3326028], [-3.4317716, 40.3320825], [-3.4316873, 40.3316135], [-3.4313081, 40.3315621], [-3.431058, 40.3312709], [-3.4310385, 40.3300267], [-3.4314274, 40.330225], [-3.4317717, 40.3261232], [-3.4320528, 40.3259248], [-3.4317969, 40.3255489], [-3.4321087, 40.3254525], [-3.431612, 40.3246356], [-3.4322941, 40.3243603], [-3.4311546, 40.3231892], [-3.4314851, 40.3228119], [-3.431853, 40.3225651], [-3.4321733, 40.3217303], [-3.4319301, 40.3215161], [-3.4309968, 40.3190796], [-3.4311464, 40.3189011], [-3.4308767, 40.3180594], [-3.4299413, 40.3180401], [-3.4285135, 40.3181416], [-3.4282896, 40.3176674], [-3.4279104, 40.3162795], [-3.4270207, 40.3165572], [-3.4268822, 40.3165622], [-3.4268148, 40.3164723], [-3.4269244, 40.3162795], [-3.4272109, 40.3160353], [-3.4245552, 40.3148379], [-3.421801, 40.3141819], [-3.4213539, 40.3141416], [-3.4211951, 40.3143914], [-3.4209694, 40.3144106], [-3.4208147, 40.3142169], [-3.4203933, 40.3140562], [-3.4202501, 40.3140755], [-3.4202248, 40.3143754], [-3.419913, 40.3144739], [-3.4195928, 40.3145253], [-3.4194748, 40.314506], [-3.4192641, 40.3138763], [-3.4188849, 40.31351], [-3.4186995, 40.3134136], [-3.4178506, 40.3134708], [-3.417486, 40.3139727], [-3.4169466, 40.3138956], [-3.4166288, 40.3135286], [-3.4156247, 40.3134508], [-3.4154882, 40.3133817], [-3.4152789, 40.3134309], [-3.4150212, 40.3132099], [-3.4149177, 40.3129626], [-3.414981, 40.3126697], [-3.4149488, 40.3124426], [-3.4146187, 40.3123812], [-3.4147556, 40.3120251], [-3.4139527, 40.3121062], [-3.4133387, 40.3117857], [-3.4128013, 40.3113865], [-3.4126867, 40.3115402], [-3.4125176, 40.31162], [-3.4123727, 40.31162], [-3.4121392, 40.3109079], [-3.4119702, 40.3108158], [-3.4116167, 40.3107828], [-3.4115435, 40.3108649], [-3.4093701, 40.3105856], [-3.4097564, 40.3100853], [-3.4091124, 40.3099257], [-3.4090238, 40.3097477], [-3.4091446, 40.309275], [-3.4089621, 40.309216], [-3.4089191, 40.3085629], [-3.4085005, 40.3075745], [-3.4083637, 40.3062914], [-3.4077277, 40.3061625], [-3.4074379, 40.3064633], [-3.4063511, 40.3064388], [-3.4053368, 40.3063713], [-3.4048796, 40.3062311], [-3.4043063, 40.3058985], [-3.4037428, 40.3054627], [-3.4030666, 40.3051496], [-3.4022421, 40.305255], [-3.4019125, 40.3051181], [-3.4020684, 40.304861], [-3.4019074, 40.3045111], [-3.4015854, 40.3042041], [-3.4012392, 40.3040077], [-3.4014565, 40.3038787], [-3.4014646, 40.3037559], [-3.4012875, 40.3036025], [-3.4012633, 40.3034551], [-3.4013841, 40.3032525], [-3.4012955, 40.3031113], [-3.4004422, 40.3029394], [-3.40028, 40.3029837], [-3.400088, 40.3032955], [-3.3997177, 40.3033876], [-3.3986346, 40.3042344], [-3.3984836, 40.3042055], [-3.3983652, 40.3041326], [-3.3981034, 40.3041587], [-3.3979269, 40.3042628], [-3.3975687, 40.304357], [-3.3973923, 40.3042379], [-3.3972552, 40.3040414], [-3.3960769, 40.303425], [-3.3959996, 40.3030377], [-3.396054, 40.3026368], [-3.3953061, 40.3016413], [-3.3947679, 40.3015826], [-3.3939388, 40.3012633], [-3.3917545, 40.3004186], [-3.3902891, 40.3001449], [-3.3901954, 40.3000231], [-3.3896158, 40.3003731], [-3.3895031, 40.3006125], [-3.3894628, 40.3004222], [-3.3892696, 40.3002994], [-3.3890523, 40.2999679], [-3.3880943, 40.2996302], [-3.3873375, 40.2995135], [-3.3871846, 40.2995995], [-3.3867626, 40.299524], [-3.385169, 40.299548], [-3.3849869, 40.2997407], [-3.38452, 40.299796], [-3.3841526, 40.2997926], [-3.3838617, 40.2999688], [-3.382451, 40.2993846], [-3.3824349, 40.2987522], [-3.3825718, 40.2981996], [-3.3824311, 40.2977583], [-3.3803718, 40.2976983], [-3.3795991, 40.2978769], [-3.377402, 40.2949325], [-3.3767412, 40.2938983], [-3.376635, 40.2921138], [-3.3766709, 40.2918446], [-3.3762523, 40.2916297], [-3.3759786, 40.2913718], [-3.3770976, 40.2913534], [-3.3769789, 40.2912413], [-3.3775666, 40.2903208], [-3.3776225, 40.2894349], [-3.3782649, 40.2883936], [-3.3778855, 40.2879286], [-3.3786433, 40.2873374], [-3.378917, 40.2872023], [-3.3790538, 40.2870672], [-3.3793275, 40.2867847], [-3.3795368, 40.2864101], [-3.3796978, 40.2864347], [-3.3800314, 40.2855048], [-3.3801165, 40.2854582], [-3.3802145, 40.285493], [-3.380519, 40.2850714], [-3.3807524, 40.2848503], [-3.3813159, 40.2840212], [-3.3815172, 40.2839967], [-3.3816863, 40.2840826], [-3.3818875, 40.2840212], [-3.3820244, 40.283837], [-3.3812274, 40.2837817], [-3.3814977, 40.283353], [-3.3830709, 40.2820683], [-3.3843589, 40.2808523], [-3.3812541, 40.2780286], [-3.3757803, 40.2729401], [-3.375391, 40.2724381], [-3.3746223, 40.2718404], [-3.3736923, 40.2705892], [-3.3736118, 40.2702514], [-3.3729598, 40.2690905], [-3.3705576, 40.2662425], [-3.3697508, 40.265314], [-3.3711481, 40.2645379], [-3.3733318, 40.2638372], [-3.374845, 40.2631386], [-3.375818, 40.2625679], [-3.3768606, 40.2618348], [-3.3781012, 40.2607587], [-3.3790234, 40.2595394], [-3.3801941, 40.2585986], [-3.3813745, 40.2572884], [-3.3825573, 40.2564106], [-3.3835867, 40.2554613], [-3.3872382, 40.252413], [-3.3879391, 40.2515999], [-3.3900232, 40.2500613], [-3.391102, 40.2495352], [-3.3946111, 40.2485914], [-3.3960209, 40.2482122], [-3.3987421, 40.2511038], [-3.3998524, 40.2519559], [-3.4007023, 40.2525115], [-3.4030785, 40.2546475], [-3.4041891, 40.2555446], [-3.4056773, 40.2566385], [-3.4085926, 40.2584301], [-3.4095008, 40.2588774], [-3.4100657, 40.2589385], [-3.4111109, 40.2587096], [-3.4127759, 40.2579198], [-3.4141265, 40.2576267], [-3.4148667, 40.257525], [-3.4157487, 40.2575309], [-3.4184431, 40.2577734], [-3.4194299, 40.2576167], [-3.4202391, 40.2572534], [-3.4208006, 40.2567739], [-3.422764, 40.2548298], [-3.4249901, 40.2554073], [-3.4260157, 40.2558179], [-3.4289707, 40.2563656], [-3.4305133, 40.2567113], [-3.4321158, 40.2572188], [-3.4339642, 40.2575633], [-3.4352244, 40.2578649], [-3.4366368, 40.2580578], [-3.4394955, 40.2582272], [-3.4414345, 40.2580307], [-3.4436805, 40.2580131], [-3.4484661, 40.2574095], [-3.4528766, 40.2572183], [-3.4559916, 40.2581845], [-3.4591521, 40.2583042], [-3.4625264, 40.2568126], [-3.4650225, 40.2561007], [-3.4675492, 40.2556643], [-3.4702578, 40.255339], [-3.4724962, 40.2553769], [-3.4749831, 40.2556234], [-3.4757452, 40.2556262], [-3.4757417, 40.2560069], [-3.4759475, 40.2560871], [-3.4761199, 40.25611], [-3.4763507, 40.2560784], [-3.4765547, 40.2560172], [-3.4764961, 40.2559633], [-3.4763263, 40.2556729], [-3.4762577, 40.2555462], [-3.4762779, 40.2554242], [-3.4763279, 40.25533], [-3.47639, 40.2552746], [-3.4764757, 40.2552289], [-3.4765398, 40.2552136], [-3.4765867, 40.2552053], [-3.4766683, 40.2552054], [-3.4767162, 40.25521], [-3.4767798, 40.2552173], [-3.4768773, 40.255239], [-3.4769682, 40.255265], [-3.4769991, 40.2552714], [-3.4770261, 40.2552763], [-3.4770548, 40.2552745], [-3.4770812, 40.2552668], [-3.4771106, 40.2552528], [-3.4772037, 40.255197], [-3.4772365, 40.2551803], [-3.47727, 40.2551671], [-3.4773108, 40.2551562], [-3.4773497, 40.2551519], [-3.4774215, 40.2551494], [-3.4777327, 40.2551446], [-3.4778559, 40.2551409], [-3.4779247, 40.2551355], [-3.4780018, 40.2551264], [-3.4780623, 40.2551195], [-3.4781126, 40.2551165], [-3.4781622, 40.2551175], [-3.4782167, 40.2551226], [-3.4782671, 40.2551296], [-3.4784368, 40.2551638], [-3.4786008, 40.2552011], [-3.4786616, 40.2552108], [-3.4787343, 40.2552133], [-3.4789366, 40.2551952], [-3.4790297, 40.2551921], [-3.4791202, 40.255195], [-3.4792227, 40.255217], [-3.4793448, 40.2552666], [-3.4795759, 40.2553684], [-3.4797617, 40.2554469], [-3.4799348, 40.2555075], [-3.4800626, 40.2555189], [-3.4801719, 40.2554899], [-3.480372, 40.2553407], [-3.4805207, 40.2552058], [-3.4805559, 40.2551606], [-3.4806205, 40.2549578], [-3.4809814, 40.2550654], [-3.4811131, 40.2551107], [-3.4812465, 40.2553889], [-3.4826952, 40.2566926], [-3.4846888, 40.258183], [-3.4853928, 40.2595363], [-3.4861423, 40.2604636], [-3.4861284, 40.2614034], [-3.486746, 40.2633448], [-3.4883517, 40.2646393], [-3.4894947, 40.2673118], [-3.4897811, 40.2678488], [-3.4901799, 40.268155], [-3.4909132, 40.2684436], [-3.4917086, 40.2684435], [-3.4917056, 40.2696726], [-3.4929389, 40.2710941], [-3.4940226, 40.2713351], [-3.4948317, 40.271145], [-3.4952765, 40.2711512], [-3.4969688, 40.2717526], [-3.4974379, 40.2718471], [-3.4983354, 40.272174], [-3.4986888, 40.2726139], [-3.4986839, 40.2732525], [-3.4994785, 40.273652], [-3.5004285, 40.2752411], [-3.5019419, 40.2760604], [-3.5019705, 40.2765866], [-3.5038527, 40.2767425], [-3.5039225, 40.2773119], [-3.5050946, 40.2792731], [-3.5116677, 40.2853345], [-3.5197951, 40.2942758], [-3.519739, 40.2944755], [-3.5198118, 40.2946814], [-3.5197936, 40.2948712], [-3.5197086, 40.2952971], [-3.5196689, 40.2954038], [-3.5194372, 40.2956267], [-3.519223, 40.2958456], [-3.5189207, 40.296044], [-3.5184444, 40.2962853], [-3.5182647, 40.2964242], [-3.5181805, 40.2965351], [-3.5181499, 40.2966985], [-3.5177547, 40.2975133], [-3.51622, 40.298289], [-3.5159767, 40.2983619], [-3.515441, 40.2985545], [-3.5152421, 40.2986508], [-3.51432, 40.2992519], [-3.5125198, 40.2993448], [-3.5123254, 40.2993681], [-3.5120276, 40.2994981], [-3.5103851, 40.3002164], [-3.5089131, 40.3013578], [-3.5090107, 40.3021929], [-3.5122978, 40.3027355], [-3.5151529, 40.304807], [-3.5133925, 40.3062516], [-3.5099002, 40.3068594], [-3.5061178, 40.3080685], [-3.5055136, 40.3088699], [-3.505231, 40.3092135], [-3.5096987, 40.3101187], [-3.5098863, 40.3118089], [-3.5108725, 40.3124929], [-3.5117842, 40.3126262], [-3.5126876, 40.3127153], [-3.5138809, 40.3128163], [-3.5144531, 40.3131802], [-3.5146129, 40.3149879], [-3.5138041, 40.3171649], [-3.5114155, 40.3185039], [-3.5110329, 40.3185491], [-3.5105745, 40.3184706], [-3.5101299, 40.3183084], [-3.509623, 40.3180809], [-3.5089343, 40.3178183], [-3.5082819, 40.3175441], [-3.5074173, 40.3172276], [-3.5068108, 40.3170788], [-3.5063294, 40.3170222], [-3.5058888, 40.3170438], [-3.5054411, 40.3170526], [-3.5049755, 40.3169786], [-3.5041902, 40.3169944], [-3.5038493, 40.3169541], [-3.503608, 40.3169054], [-3.502386, 40.3166388], [-3.5007811, 40.3161898], [-3.4995707, 40.3157434], [-3.4982929, 40.3154816], [-3.4971412, 40.3153989], [-3.4958642, 40.3155578], [-3.4945448, 40.3158237], [-3.493354, 40.3161855], [-3.4929107, 40.3166384], [-3.4877854, 40.3218741], [-3.4854779, 40.3242299], [-3.483502, 40.3239251], [-3.483098, 40.3236019], [-3.4815295, 40.3222056], [-3.4784196, 40.3200472], [-3.4784787, 40.319573], [-3.4784406, 40.3194919], [-3.4776574, 40.3193652], [-3.477, 40.319295], [-3.4761419, 40.3191744], [-3.475288, 40.3190174], [-3.4750412, 40.3190062], [-3.4745083, 40.3190042], [-3.4737059, 40.3190798], [-3.4707412, 40.319483], [-3.4706896, 40.3198467], [-3.4706071, 40.3203388], [-3.4704474, 40.3212195], [-3.4703554, 40.3214444], [-3.4702635, 40.3220199], [-3.4701336, 40.3225314], [-3.470021, 40.3228752], [-3.4700074, 40.3230612], [-3.4700426, 40.323517], [-3.4700663, 40.3238926], [-3.4702103, 40.3240987], [-3.4704295, 40.3243462], [-3.4704836, 40.3244369], [-3.470516, 40.3245607], [-3.4705404, 40.324901], [-3.4705556, 40.3253448], [-3.470463, 40.3258305], [-3.470415, 40.3260976], [-3.470277, 40.3266772], [-3.4702094, 40.3268195], [-3.4701877, 40.3268999], [-3.4701931, 40.3270237], [-3.4702175, 40.3271289], [-3.4703307, 40.3273338], [-3.4703852, 40.3274259], [-3.4705908, 40.3278631], [-3.4706747, 40.3280797], [-3.470747, 40.328187], [-3.4709118, 40.3283633], [-3.4711604, 40.3287182], [-3.471571, 40.3294478], [-3.4716288, 40.3298005], [-3.4715768, 40.3303779], [-3.4714264, 40.3309642], [-3.4721268, 40.3311348], [-3.4717434, 40.3321516], [-3.4714899, 40.3326191], [-3.471222, 40.3330524], [-3.470826, 40.3336069], [-3.4706318, 40.3338203], [-3.4704799, 40.333922], [-3.4703634, 40.3340904], [-3.4703163, 40.3343163], [-3.4703311, 40.3346544], [-3.4705808, 40.3353325], [-3.4710963, 40.3369634], [-3.4715495, 40.3381051], [-3.4712015, 40.3382333], [-3.4711821, 40.3382818], [-3.4700987, 40.3386662], [-3.4700488, 40.3386768], [-3.4700115, 40.3386889], [-3.4699573, 40.3387064], [-3.4698991, 40.3387507], [-3.4682449, 40.3394456], [-3.4660562, 40.3401245], [-3.4655211, 40.3402376], [-3.4653881, 40.3402756], [-3.4651692, 40.3403791], [-3.4650722, 40.3404953], [-3.4645402, 40.3408543], [-3.4639639, 40.341207], [-3.4633487, 40.3414752], [-3.4630431, 40.3415687], [-3.4625673, 40.3416716], [-3.4617657, 40.3418115], [-3.4609067, 40.341934], [-3.460277, 40.3420106], [-3.4591638, 40.3421917], [-3.4574486, 40.3425761], [-3.4570912, 40.3426817], [-3.4566811, 40.3427471], [-3.4564893, 40.3427608], [-3.4551595, 40.3428596], [-3.4534758, 40.3431939], [-3.453407, 40.3431843], [-3.4528472, 40.3431963], [-3.4521755, 40.3431315], [-3.4477877, 40.3457659], [-3.4455375, 40.3477557], [-3.4437963, 40.3488812], [-3.4428471, 40.3494586], [-3.4408449, 40.3497674], [-3.4398351, 40.3501146], [-3.4382468, 40.3510299], [-3.4375492, 40.3513688], [-3.4359824, 40.3517746], [-3.435599, 40.3520581], [-3.4326335, 40.3523105], [-3.4317145, 40.3520016], [-3.4265981, 40.3513507], [-3.4262376, 40.3497007]]]}, "properties": {"tipo": "limite", "nombre": "Arganda del Rey"}}, {"type": "Feature", "geometry": {"type": "LineString", "coordinates": [[-3.393701, 40.2675719], [-3.394585, 40.2677352], [-3.3953174, 40.2678247], [-3.3959497, 40.2678704], [-3.3966468, 40.2678764], [-3.3971281, 40.2678566], [-3.3975946, 40.2678176], [-3.3979436, 40.2677779]]}, "properties": {"tipo": "via", "ref": "A-3"}}, {"type": "Feature", "geometry": {"type": "LineString", "coordinates": [[-3.3890486, 40.2653505], [-3.3891643, 40.26548], [-3.3899761, 40.2660801], [-3.3912487, 40.2670365], [-3.3920589, 40.2676177], [-3.3938868, 40.2688706], [-3.394854, 40.2695601], [-3.3956238, 40.270174], [-3.3963344, 40.2708022], [-3.3971015, 40.2715737], [-3.3976739, 40.2722231], [-3.3982479, 40.2729397], [-3.3986443, 40.2734931], [-3.3991373, 40.2742713], [-3.3996026, 40.2751262], [-3.3999934, 40.2759815], [-3.400262, 40.2766837], [-3.4004585, 40.2773077], [-3.4006256, 40.277936], [-3.4007874, 40.2787387], [-3.4008883, 40.2794799], [-3.4009438, 40.2802338], [-3.4009499, 40.2810569], [-3.4009287, 40.281831], [-3.4008785, 40.2835177], [-3.4008982, 40.2842174], [-3.4009781, 40.2850717], [-3.4010921, 40.2858142], [-3.4012243, 40.2864163], [-3.4014019, 40.2870651], [-3.4017023, 40.2879689], [-3.4020705, 40.2888356], [-3.4024507, 40.2895856], [-3.4027969, 40.2901964], [-3.4033105, 40.2909842], [-3.4039092, 40.2917788], [-3.4044569, 40.2924329], [-3.4050985, 40.2931184], [-3.4056529, 40.2936544], [-3.4063607, 40.2942732], [-3.4069978, 40.294778], [-3.4076871, 40.2952936], [-3.4085648, 40.2959202], [-3.4093613, 40.2964962], [-3.4102124, 40.2971417], [-3.4109723, 40.2977532], [-3.4115763, 40.298283], [-3.412172, 40.2988294], [-3.4129251, 40.2995734], [-3.4146862, 40.3013782], [-3.4153914, 40.3020514], [-3.4160163, 40.3025965], [-3.416677, 40.303137], [-3.4173314, 40.3036236], [-3.4179907, 40.3040767], [-3.4185288, 40.3044289], [-3.4194608, 40.3049935], [-3.4208537, 40.3057929], [-3.4217265, 40.3063092], [-3.4225382, 40.3068459], [-3.4233372, 40.3074466], [-3.4238082, 40.307843], [-3.4243216, 40.3083157], [-3.4252662, 40.3092457], [-3.4258569, 40.3098258], [-3.4264568, 40.3103811], [-3.4270641, 40.3108916], [-3.4276512, 40.3113321], [-3.42844, 40.3118608], [-3.4292252, 40.312332], [-3.4314616, 40.3135824], [-3.4323059, 40.3140863], [-3.4330857, 40.3145876]]}, "properties": {"tipo": "via", "ref": "R-3"}}, {"type": "Feature", "geometry": {"type": "LineString", "coordinates": [[-3.3945892, 40.2679104], [-3.3942519, 40.2675866], [-3.3938048, 40.2672747]]}, "properties": {"tipo": "via", "ref": "R-3"}}, {"type": "Feature", "geometry": {"type": "LineString", "coordinates": [[-3.3938048, 40.2672747], [-3.3932414, 40.2668949], [-3.3925986, 40.2665199], [-3.3919512, 40.2661949], [-3.3912071, 40.2658631], [-3.3900557, 40.2653663], [-3.3893698, 40.2650407], [-3.3888791, 40.2647692], [-3.3884096, 40.2644796], [-3.3872319, 40.2636591], [-3.3868163, 40.2634027]]}, "properties": {"tipo": "via", "ref": "R-3"}}, {"type": "Feature", "geometry": {"type": "LineString", "coordinates": [[-3.4471608, 40.3064298], [-3.4471714, 40.3066061], [-3.4472391, 40.3067198]]}, "properties": {"tipo": "via", "ref": "N-IIIa"}}, {"type": "Feature", "geometry": {"type": "LineString", "coordinates": [[-3.4485702, 40.3064772], [-3.4486574, 40.3063429], [-3.4487633, 40.3062553], [-3.4489322, 40.3061317], [-3.4494278, 40.3057737], [-3.4498866, 40.3054893], [-3.4502788, 40.3052803], [-3.4503616, 40.3052423]]}, "properties": {"tipo": "via", "ref": "N-IIIa"}}, {"type": "Feature", "geometry": {"type": "LineString", "coordinates": [[-3.4536365, 40.3046239], [-3.4536717, 40.3046596], [-3.4537158, 40.3046891], [-3.4537667, 40.3047112], [-3.4538225, 40.3047249], [-3.4538808, 40.3047296]]}, "properties": {"tipo": "via", "ref": "N-IIIa"}}, {"type": "Feature", "geometry": {"type": "LineString", "coordinates": [[-3.4636019, 40.3062863], [-3.4636531, 40.3062181], [-3.4636618, 40.3061781], [-3.4636526, 40.3061218]]}, "properties": {"tipo": "via", "ref": "N-IIIa"}}, {"type": "Feature", "geometry": {"type": "LineString", "coordinates": [[-3.4636019, 40.3062863], [-3.4637382, 40.3062842], [-3.4638427, 40.3062944], [-3.4640298, 40.3063266], [-3.464314, 40.3063787], [-3.4661465, 40.3067336], [-3.4671105, 40.3069088], [-3.4684239, 40.3071963], [-3.4692498, 40.3073979], [-3.4696277, 40.3074901], [-3.4700291, 40.3075894], [-3.4712842, 40.3078783], [-3.4731869, 40.3083433]]}, "properties": {"tipo": "via", "ref": "N-IIIa"}}, {"type": "Feature", "geometry": {"type": "LineString", "coordinates": [[-3.4751922, 40.3089007], [-3.4753835, 40.308897], [-3.4755281, 40.3089044], [-3.4769386, 40.3092436], [-3.4774107, 40.3093573], [-3.4793161, 40.309816], [-3.4813595, 40.3103109], [-3.4842094, 40.3109949], [-3.4853207, 40.311264], [-3.4862311, 40.3114884], [-3.4869185, 40.3116519], [-3.4873417, 40.3117526], [-3.4875415, 40.3118051]]}, "properties": {"tipo": "via", "ref": "N-IIIa"}}, {"type": "Feature", "geometry": {"type": "LineString", "coordinates": [[-3.4632708, 40.306062], [-3.4630619, 40.3060566], [-3.4606796, 40.3055962], [-3.4585299, 40.3051869], [-3.4577067, 40.3050301], [-3.4555269, 40.3046149]]}, "properties": {"tipo": "via", "ref": "N-IIIa"}}, {"type": "Feature", "geometry": {"type": "LineString", "coordinates": [[-3.4334733, 40.2690702], [-3.4343255, 40.2692179]]}, "properties": {"tipo": "via", "ref": "A-3"}}, {"type": "Feature", "geometry": {"type": "LineString", "coordinates": [[-3.4335121, 40.268932], [-3.4328478, 40.2688393], [-3.431827, 40.268724], [-3.43027, 40.2685798], [-3.4295884, 40.268511], [-3.4289875, 40.2684343], [-3.4282382, 40.2683014], [-3.4275958, 40.2681623], [-3.4270204, 40.2680258], [-3.4256861, 40.26765], [-3.4249286, 40.2674441], [-3.4240732, 40.2672654], [-3.4233379, 40.2671423], [-3.4224693, 40.2670391], [-3.4214588, 40.2669407], [-3.420626, 40.2668436], [-3.4197474, 40.2666977], [-3.41894, 40.2665268], [-3.4181209, 40.2663049], [-3.4174021, 40.2660624], [-3.4167248, 40.2658004], [-3.4158747, 40.2654142], [-3.4143638, 40.2646749], [-3.4136523, 40.2643831], [-3.4129761, 40.264152], [-3.4122059, 40.2639599], [-3.411507, 40.2638208], [-3.4107431, 40.2637206], [-3.4099273, 40.2636629], [-3.4094135, 40.2636659]]}, "properties": {"tipo": "via", "ref": "A-3"}}, {"type": "Feature", "geometry": {"type": "LineString", "coordinates": [[-3.4343726, 40.2690722], [-3.4335121, 40.268932]]}, "properties": {"tipo": "via", "ref": "A-3"}}, {"type": "Feature", "geometry": {"type": "LineString", "coordinates": [[-3.4390799, 40.2702721], [-3.4376117, 40.2698876]]}, "properties": {"tipo": "via", "ref": "A-3"}}, {"type": "Feature", "geometry": {"type": "LineString", "coordinates": [[-3.4399124, 40.2704721], [-3.4390799, 40.2702721]]}, "properties": {"tipo": "via", "ref": "A-3"}}, {"type": "Feature", "geometry": {"type": "LineString", "coordinates": [[-3.4389082, 40.2704], [-3.439753, 40.270603]]}, "properties": {"tipo": "via", "ref": "A-3"}}, {"type": "Feature", "geometry": {"type": "LineString", "coordinates": [[-3.4343255, 40.2692179], [-3.4348807, 40.2693227], [-3.4356774, 40.2695005], [-3.4365631, 40.2697366], [-3.4389082, 40.2704]]}, "properties": {"tipo": "via", "ref": "A-3"}}, {"type": "Feature", "geometry": {"type": "LineString", "coordinates": [[-3.4260265, 40.2948657], [-3.4261263, 40.2948836], [-3.4262186, 40.2949128], [-3.4264725, 40.2951036], [-3.4276697, 40.2960623], [-3.4281374, 40.2964006], [-3.4284749, 40.2967005], [-3.4287574, 40.2969898], [-3.4290245, 40.2973592], [-3.4290938, 40.2975273], [-3.4291138, 40.2976161], [-3.4291195, 40.2977031]]}, "properties": {"tipo": "via", "ref": "N-IIIa"}}, {"type": "Feature", "geometry": {"type": "LineString", "coordinates": [[-3.4262576, 40.294654], [-3.4262449, 40.2945984], [-3.4262099, 40.294544], [-3.4261609, 40.294503]]}, "properties": {"tipo": "via", "ref": "N-IIIa"}}, {"type": "Feature", "geometry": {"type": "LineString", "coordinates": [[-3.4364724, 40.3045479], [-3.4363538, 40.3045002], [-3.4362869, 40.3043791], [-3.4362254, 40.3042403], [-3.4361339, 40.3041407], [-3.4358589, 40.3039116], [-3.4351549, 40.3033457], [-3.4343976, 40.3026811], [-3.4337897, 40.3021374], [-3.4329644, 40.3014096], [-3.4316396, 40.3002393], [-3.4309943, 40.299662], [-3.4305813, 40.2992925], [-3.430289, 40.2990152], [-3.4300869, 40.2987716], [-3.4298282, 40.2983845], [-3.4296963, 40.2981154], [-3.429688, 40.2980865], [-3.4296963, 40.2979927]]}, "properties": {"tipo": "via", "ref": "N-IIIa"}}, {"type": "Feature", "geometry": {"type": "LineString", "coordinates": [[-3.4367268, 40.3049216], [-3.4368592, 40.3049004], [-3.4369234, 40.3048971], [-3.4370027, 40.3049019], [-3.437331, 40.3048954], [-3.4378256, 40.3048871], [-3.4383938, 40.3049041], [-3.4390814, 40.3049071], [-3.4395107, 40.3049258], [-3.4398825, 40.3049701], [-3.4402885, 40.3050379], [-3.4404248, 40.3050918], [-3.4405198, 40.3051293]]}, "properties": {"tipo": "via", "ref": "N-IIIa"}}, {"type": "Feature", "geometry": {"type": "LineString", "coordinates": [[-3.4405826, 40.3048877], [-3.4403156, 40.3049195], [-3.4399055, 40.3048749], [-3.4397549, 40.3048615], [-3.4395145, 40.3048402], [-3.439077, 40.3048366], [-3.4384011, 40.304835], [-3.4378198, 40.3048097], [-3.4373321, 40.3048178], [-3.4370121, 40.3048356], [-3.4369301, 40.3048241], [-3.4368654, 40.3048005], [-3.4368036, 40.3047588]]}, "properties": {"tipo": "via", "ref": "N-IIIa"}}, {"type": "Feature", "geometry": {"type": "LineString", "coordinates": [[-3.4410749, 40.3052182], [-3.4412385, 40.3051835], [-3.4413088, 40.3051858], [-3.4414091, 40.305189], [-3.4419556, 40.3052914], [-3.4426319, 40.3054914], [-3.4433612, 40.3057386], [-3.4446758, 40.3062261], [-3.4449881, 40.3063394], [-3.4451704, 40.3064023], [-3.4454037, 40.3064723], [-3.4456486, 40.306535], [-3.4458903, 40.3065857], [-3.4460627, 40.3066168], [-3.4462607, 40.3066446], [-3.4464118, 40.3066605], [-3.4465643, 40.3066711], [-3.4467261, 40.3066764], [-3.4468866, 40.306675], [-3.4469898, 40.3066764], [-3.4470823, 40.3066852], [-3.4471747, 40.3067036], [-3.4472391, 40.3067198]]}, "properties": {"tipo": "via", "ref": "N-IIIa"}}, {"type": "Feature", "geometry": {"type": "LineString", "coordinates": [[-3.4471608, 40.3064298], [-3.447081, 40.3064857], [-3.4470161, 40.3065197], [-3.4469517, 40.3065407], [-3.4468797, 40.3065542], [-3.4467438, 40.3065599], [-3.4465841, 40.3065572], [-3.4463826, 40.3065452], [-3.4462073, 40.3065284], [-3.4460356, 40.3065037], [-3.445819, 40.3064628], [-3.4456028, 40.3064104], [-3.4451737, 40.3062877], [-3.4435251, 40.3056882], [-3.4427092, 40.3054063], [-3.4420033, 40.3051953], [-3.4414244, 40.3050783], [-3.4413382, 40.305059], [-3.4412421, 40.3050332], [-3.4411498, 40.3049919]]}, "properties": {"tipo": "via", "ref": "N-IIIa"}}, {"type": "Feature", "geometry": {"type": "LineString", "coordinates": [[-3.4333559, 40.314542], [-3.4324462, 40.3139505], [-3.431595, 40.3134453], [-3.4294083, 40.3122202], [-3.4286216, 40.3117529], [-3.4278808, 40.3112599], [-3.4272349, 40.3107783], [-3.4266429, 40.3102833], [-3.4260357, 40.3097204], [-3.4254628, 40.3091625], [-3.4245189, 40.3082245], [-3.4239849, 40.3077389], [-3.4235033, 40.3073366], [-3.4227001, 40.3067264], [-3.4218766, 40.3061827], [-3.4209982, 40.3056636], [-3.4195782, 40.3048463], [-3.4186674, 40.3042943], [-3.4181269, 40.3039425], [-3.4174512, 40.3034765], [-3.4168059, 40.3029913], [-3.4161997, 40.3024953], [-3.4156097, 40.3019811], [-3.4148575, 40.3012636], [-3.4130988, 40.2994672], [-3.4123649, 40.2987446], [-3.411759, 40.2981809], [-3.4111726, 40.2976625], [-3.41032, 40.2969819], [-3.409525, 40.2963849], [-3.4087171, 40.2957937], [-3.4078647, 40.2951871], [-3.4070943, 40.2946061], [-3.4064987, 40.294137], [-3.4057962, 40.2935139], [-3.4052168, 40.292951], [-3.4046311, 40.2923261], [-3.404107, 40.2917068], [-3.4034975, 40.2908898], [-3.4029928, 40.2901038], [-3.4026411, 40.2894892], [-3.4022771, 40.2887733], [-3.4019159, 40.2879196], [-3.4016131, 40.2870129], [-3.4014414, 40.2863821], [-3.4013222, 40.2858014], [-3.4012002, 40.2850751], [-3.4011219, 40.2842189], [-3.4010994, 40.2835262], [-3.4011505, 40.2818361], [-3.4011764, 40.2810647], [-3.401168, 40.2802533], [-3.401107, 40.2794641], [-3.401012, 40.2787176], [-3.4008495, 40.2779231], [-3.4006879, 40.2773159], [-3.4004833, 40.2766453], [-3.4002037, 40.2759223], [-3.3998275, 40.2750905], [-3.3993487, 40.2742117], [-3.3988635, 40.2734415], [-3.3984606, 40.2728548], [-3.3956862, 40.2691109], [-3.3951535, 40.2684803], [-3.3945892, 40.2679104]]}, "properties": {"tipo": "via", "ref": "R-3"}}, {"type": "Feature", "geometry": {"type": "LineString", "coordinates": [[-3.4330857, 40.3145876], [-3.433982, 40.315231]]}, "properties": {"tipo": "via", "ref": "R-3"}}, {"type": "Feature", "geometry": {"type": "LineString", "coordinates": [[-3.4342403, 40.3151812], [-3.4333559, 40.314542]]}, "properties": {"tipo": "via", "ref": "R-3"}}, {"type": "Feature", "geometry": {"type": "LineString", "coordinates": [[-3.433982, 40.315231], [-3.4344404, 40.3155993], [-3.435273, 40.3162603], [-3.4360283, 40.3169606], [-3.4367407, 40.3176346], [-3.4371409, 40.3180457], [-3.4374949, 40.3184412], [-3.4378302, 40.3188392], [-3.438151, 40.3192433], [-3.4384847, 40.3196572], [-3.4388527, 40.3201697], [-3.4392437, 40.3207268], [-3.4396863, 40.3213983], [-3.4402656, 40.3222412], [-3.4406835, 40.3228293], [-3.4411894, 40.3234773], [-3.4416754, 40.3240592], [-3.4421287, 40.3245623], [-3.4426109, 40.3250602], [-3.442863, 40.3253087], [-3.4431167, 40.325551], [-3.4433754, 40.3257927], [-3.4435979, 40.325993], [-3.4438182, 40.3261826], [-3.4440083, 40.3263461], [-3.4441782, 40.3264923], [-3.4443286, 40.3266216], [-3.4444765, 40.3267488]]}, "properties": {"tipo": "via", "ref": "R-3"}}, {"type": "Feature", "geometry": {"type": "LineString", "coordinates": [[-3.3802629, 40.2573606], [-3.3812142, 40.2576473], [-3.381491, 40.2577266], [-3.3818259, 40.257839], [-3.3821179, 40.2579532], [-3.3825755, 40.2582004], [-3.3844056, 40.2593128]]}, "properties": {"tipo": "via", "ref": "N-IIIa"}}, {"type": "Feature", "geometry": {"type": "LineString", "coordinates": [[-3.4491732, 40.2732833], [-3.449624, 40.2735447], [-3.4500996, 40.2738643]]}, "properties": {"tipo": "via", "ref": "A-3"}}, {"type": "Feature", "geometry": {"type": "LineString", "coordinates": [[-3.4501015, 40.2736236], [-3.4496733, 40.2733489], [-3.4491815, 40.2730742]]}, "properties": {"tipo": "via", "ref": "A-3"}}, {"type": "Feature", "geometry": {"type": "LineString", "coordinates": [[-3.4491815, 40.2730742], [-3.4485935, 40.2727976], [-3.4480853, 40.2725762], [-3.4475658, 40.2723633], [-3.446751, 40.2720472]]}, "properties": {"tipo": "via", "ref": "A-3"}}, {"type": "Feature", "geometry": {"type": "LineString", "coordinates": [[-3.4883064, 40.2938176], [-3.4884421, 40.2936244]]}, "properties": {"tipo": "via", "ref": "M-506"}}, {"type": "Feature", "geometry": {"type": "LineString", "coordinates": [[-3.4362556, 40.3046581], [-3.4362194, 40.3047371], [-3.4362237, 40.3048206], [-3.4362679, 40.3048971], [-3.4363318, 40.3049484], [-3.4364135, 40.3049819], [-3.4365257, 40.304994], [-3.4366356, 40.3049729], [-3.4367268, 40.3049216]]}, "properties": {"tipo": "via", "ref": "N-IIIa"}}, {"type": "Feature", "geometry": {"type": "LineString", "coordinates": [[-3.4411498, 40.3049919], [-3.4411281, 40.3049448], [-3.4410946, 40.304902], [-3.4410237, 40.3048484], [-3.440935, 40.3048136], [-3.4408366, 40.3048008], [-3.4407377, 40.3048111]]}, "properties": {"tipo": "via", "ref": "N-IIIa"}}, {"type": "Feature", "geometry": {"type": "LineString", "coordinates": [[-3.4293445, 40.2981021], [-3.429465, 40.2981861], [-3.4297205, 40.2984299], [-3.4299929, 40.2988088], [-3.4302132, 40.2990753], [-3.4305138, 40.2993429], [-3.4306221, 40.2994392], [-3.4313964, 40.3001277], [-3.4315666, 40.300279], [-3.4328996, 40.3014622], [-3.4337228, 40.3021872], [-3.4343335, 40.302734], [-3.4350829, 40.3033863], [-3.4357859, 40.3039527], [-3.4360673, 40.3041955], [-3.4361339, 40.3042852], [-3.436204, 40.3044059], [-3.4362442, 40.3045272], [-3.4362515, 40.3045909], [-3.4362556, 40.3046581]]}, "properties": {"tipo": "via", "ref": "N-IIIa"}}, {"type": "Feature", "geometry": {"type": "LineString", "coordinates": [[-3.4294316, 40.2975808], [-3.4292711, 40.2974776], [-3.4291429, 40.297312], [-3.4288525, 40.2969627], [-3.4285494, 40.2966461], [-3.4282249, 40.2963407]]}, "properties": {"tipo": "via", "ref": "N-IIIa"}}, {"type": "Feature", "geometry": {"type": "LineString", "coordinates": [[-3.4291195, 40.2977031], [-3.429077, 40.2977783], [-3.4290668, 40.2978599], [-3.4290892, 40.2979384], [-3.4291267, 40.2979927], [-3.4292198, 40.2980628], [-3.4293445, 40.2981021]]}, "properties": {"tipo": "via", "ref": "N-IIIa"}}, {"type": "Feature", "geometry": {"type": "LineString", "coordinates": [[-3.3986865, 40.2676626], [-3.3992008, 40.2675614], [-3.4000066, 40.2673433], [-3.4004887, 40.2671794], [-3.400843, 40.2670404], [-3.4016564, 40.2667007]]}, "properties": {"tipo": "via", "ref": "A-3"}}, {"type": "Feature", "geometry": {"type": "LineString", "coordinates": [[-3.3979436, 40.2677779], [-3.3986865, 40.2676626]]}, "properties": {"tipo": "via", "ref": "A-3"}}, {"type": "Feature", "geometry": {"type": "LineString", "coordinates": [[-3.3984447, 40.2675162], [-3.397728, 40.2676317]]}, "properties": {"tipo": "via", "ref": "A-3"}}, {"type": "Feature", "geometry": {"type": "LineString", "coordinates": [[-3.3759123, 40.2576285], [-3.3770817, 40.257934], [-3.3779027, 40.2581893], [-3.3788264, 40.2585404], [-3.3801776, 40.2591464], [-3.3809103, 40.2595304], [-3.3816401, 40.2599754], [-3.3826717, 40.2606698], [-3.3862694, 40.2633093]]}, "properties": {"tipo": "via", "ref": "A-3"}}, {"type": "Feature", "geometry": {"type": "LineString", "coordinates": [[-3.4017287, 40.269827], [-3.4009801, 40.2693423], [-3.4005638, 40.2690918], [-3.398824, 40.2679887]]}, "properties": {"tipo": "via", "ref": "N-IIIa"}}, {"type": "Feature", "geometry": {"type": "LineString", "coordinates": [[-3.4252306, 40.2927757], [-3.4253281, 40.2924338], [-3.4254982, 40.2919183], [-3.4256012, 40.2915648], [-3.425664, 40.2912539], [-3.4256698, 40.2909232], [-3.425649, 40.290635], [-3.4255762, 40.2903359], [-3.4250497, 40.2887556], [-3.4248326, 40.2881287], [-3.4247462, 40.2878756], [-3.4246224, 40.2876376], [-3.4244958, 40.2874745], [-3.424345, 40.2873345], [-3.4240457, 40.2871026], [-3.4236318, 40.2867791], [-3.4233663, 40.2866024], [-3.4231293, 40.2864698], [-3.422878, 40.2863608], [-3.4226188, 40.2862735]]}, "properties": {"tipo": "via", "ref": "N-IIIa"}}, {"type": "Feature", "geometry": {"type": "LineString", "coordinates": [[-3.3944163, 40.265372], [-3.3949974, 40.2657528], [-3.3963432, 40.2665626]]}, "properties": {"tipo": "via", "ref": "N-IIIa"}}, {"type": "Feature", "geometry": {"type": "LineString", "coordinates": [[-3.4017287, 40.269827], [-3.4035429, 40.2709293], [-3.4051525, 40.2719072], [-3.4056745, 40.2722323], [-3.4057894, 40.272322], [-3.4058915, 40.272415], [-3.4060888, 40.2726214], [-3.4078722, 40.2748377], [-3.4102592, 40.2777984], [-3.4110655, 40.2787824], [-3.4113504, 40.2791048]]}, "properties": {"tipo": "via", "ref": "N-IIIa"}}, {"type": "Feature", "geometry": {"type": "LineString", "coordinates": [[-3.3944163, 40.265372], [-3.3940963, 40.2651802], [-3.3938277, 40.2650193]]}, "properties": {"tipo": "via", "ref": "N-IIIa"}}, {"type": "Feature", "geometry": {"type": "LineString", "coordinates": [[-3.4528186, 40.2771835], [-3.4530272, 40.2777803], [-3.4533997, 40.2789905], [-3.4535716, 40.2794874], [-3.453805, 40.2800747], [-3.4541069, 40.2807233], [-3.4544272, 40.2813118], [-3.454729, 40.2818109], [-3.455128, 40.2823956], [-3.4553032, 40.2826386], [-3.4559099, 40.283388], [-3.45699, 40.284635], [-3.4574869, 40.2852638], [-3.4579176, 40.2859213], [-3.4582882, 40.2865863], [-3.4604367, 40.2910857], [-3.460763, 40.2916882], [-3.4611523, 40.2922486], [-3.4612127, 40.2923311]]}, "properties": {"tipo": "via", "ref": "A-3"}}, {"type": "Feature", "geometry": {"type": "LineString", "coordinates": [[-3.439753, 40.270603], [-3.4406999, 40.2708153], [-3.4418343, 40.2710393], [-3.4432326, 40.2712988], [-3.444023, 40.2714633], [-3.4446064, 40.271602], [-3.4451921, 40.2717607], [-3.4454667, 40.2718315]]}, "properties": {"tipo": "via", "ref": "A-3"}}, {"type": "Feature", "geometry": {"type": "LineString", "coordinates": [[-3.4657804, 40.2954711], [-3.4661138, 40.29558]]}, "properties": {"tipo": "via", "ref": "A-3"}}, {"type": "Feature", "geometry": {"type": "LineString", "coordinates": [[-3.4664122, 40.2954784], [-3.4660682, 40.2953712]]}, "properties": {"tipo": "via", "ref": "A-3"}}, {"type": "Feature", "geometry": {"type": "LineString", "coordinates": [[-3.4661138, 40.29558], [-3.4667947, 40.2957759], [-3.4675568, 40.2959469], [-3.4686365, 40.2961806]]}, "properties": {"tipo": "via", "ref": "A-3"}}, {"type": "Feature", "geometry": {"type": "LineString", "coordinates": [[-3.4660682, 40.2953712], [-3.465405, 40.295123], [-3.4647302, 40.2948454], [-3.4642449, 40.2945962], [-3.4638561, 40.2943864]]}, "properties": {"tipo": "via", "ref": "A-3"}}, {"type": "Feature", "geometry": {"type": "LineString", "coordinates": [[-3.4873289, 40.3116745], [-3.4869525, 40.3115813], [-3.4862562, 40.3114088]]}, "properties": {"tipo": "via", "ref": "N-IIIa"}}, {"type": "Feature", "geometry": {"type": "LineString", "coordinates": [[-3.4745614, 40.3085123], [-3.4744281, 40.3085356], [-3.4742438, 40.3085144], [-3.473226, 40.3082646], [-3.4713219, 40.307804], [-3.4699836, 40.3074828], [-3.4692965, 40.307311], [-3.469285, 40.3073082], [-3.4688978, 40.3072153], [-3.468457, 40.3071125], [-3.467135, 40.3068304], [-3.4661829, 40.3066497], [-3.4643491, 40.3063006], [-3.4640569, 40.3062459], [-3.4638767, 40.3062103], [-3.4637787, 40.3061824], [-3.4636526, 40.3061218]]}, "properties": {"tipo": "via", "ref": "N-IIIa"}}, {"type": "Feature", "geometry": {"type": "LineString", "coordinates": [[-3.413969, 40.282025], [-3.4141003, 40.2821391], [-3.4142633, 40.2822468], [-3.4145238, 40.282369], [-3.4147539, 40.2824613], [-3.4160602, 40.2829674], [-3.4162244, 40.2830371], [-3.4164285, 40.2831552], [-3.4165685, 40.2832727], [-3.4166628, 40.283377], [-3.4167513, 40.2835192], [-3.4168438, 40.2837177], [-3.4169572, 40.2840655], [-3.4170457, 40.2842605], [-3.417166, 40.2844554], [-3.4173175, 40.284625], [-3.4174714, 40.2847444], [-3.4176938, 40.2848689], [-3.4179725, 40.2849735], [-3.4226188, 40.2862735]]}, "properties": {"tipo": "via", "ref": "N-IIIa"}}, {"type": "Feature", "geometry": {"type": "LineString", "coordinates": [[-3.4128517, 40.2808042], [-3.4131568, 40.2811435], [-3.4138111, 40.2818662], [-3.413969, 40.282025]]}, "properties": {"tipo": "via", "ref": "N-IIIa"}}, {"type": "Feature", "geometry": {"type": "LineString", "coordinates": [[-3.3986543, 40.2679762], [-3.399316, 40.2683784], [-3.3998824, 40.2687353], [-3.4005302, 40.2691227], [-3.400945, 40.2693694], [-3.4017287, 40.269827]]}, "properties": {"tipo": "via", "ref": "N-IIIa"}}, {"type": "Feature", "geometry": {"type": "LineString", "coordinates": [[-3.398824, 40.2679887], [-3.398621, 40.26786], [-3.3970286, 40.266903], [-3.3958281, 40.2661676], [-3.3953222, 40.2658624], [-3.3944163, 40.265372]]}, "properties": {"tipo": "via", "ref": "N-IIIa"}}, {"type": "Feature", "geometry": {"type": "LineString", "coordinates": [[-3.3875466, 40.261075], [-3.3875921, 40.261024], [-3.3876234, 40.2609672], [-3.3876394, 40.2609068], [-3.3876395, 40.2608451], [-3.3876208, 40.2607781], [-3.3875834, 40.2607158], [-3.3875289, 40.2606612], [-3.3874412, 40.2606081], [-3.3873379, 40.2605752], [-3.3872267, 40.260565], [-3.3871161, 40.2605783], [-3.3870145, 40.2606141], [-3.3869294, 40.2606696]]}, "properties": {"tipo": "via", "ref": "N-IIIa"}}, {"type": "Feature", "geometry": {"type": "LineString", "coordinates": [[-3.3877096, 40.2613026], [-3.3878647, 40.2613914], [-3.3884546, 40.2617525]]}, "properties": {"tipo": "via", "ref": "N-IIIa"}}, {"type": "Feature", "geometry": {"type": "LineString", "coordinates": [[-3.4537204, 40.3043304], [-3.4535516, 40.3043305], [-3.4531363, 40.3043529], [-3.4530572, 40.3043491], [-3.4529893, 40.3043325], [-3.4529276, 40.3043104], [-3.4528355, 40.3042613], [-3.4527703, 40.3042247], [-3.452696, 40.3041904]]}, "properties": {"tipo": "via", "ref": "N-IIIa"}}, {"type": "Feature", "geometry": {"type": "LineString", "coordinates": [[-3.4523966, 40.3043347], [-3.4523632, 40.304403], [-3.4523331, 40.3044311], [-3.4522782, 40.304472], [-3.4521914, 40.3045117], [-3.4521026, 40.3045396], [-3.4517017, 40.3046316], [-3.4514399, 40.3047105], [-3.4510054, 40.3048455], [-3.4507447, 40.3049463], [-3.450654, 40.3049861], [-3.4504813, 40.3050618], [-3.450349, 40.3051214], [-3.449969, 40.3052984], [-3.449791, 40.305402], [-3.4495613, 40.3055357], [-3.4491321, 40.3058302], [-3.4490016, 40.3058993], [-3.4489158, 40.3059421], [-3.4488194, 40.3059915], [-3.4486922, 40.3060348], [-3.4485624, 40.3060458], [-3.4484476, 40.306044], [-3.4483246, 40.3060351]]}, "properties": {"tipo": "via", "ref": "N-IIIa"}}, {"type": "Feature", "geometry": {"type": "LineString", "coordinates": [[-3.452696, 40.3041904], [-3.4526445, 40.3041787], [-3.4526052, 40.3041742], [-3.4525606, 40.3041785], [-3.4525137, 40.3041939], [-3.4524791, 40.3042124], [-3.452451, 40.3042364], [-3.4524209, 40.3042656]]}, "properties": {"tipo": "via", "ref": "N-IIIa"}}, {"type": "Feature", "geometry": {"type": "LineString", "coordinates": [[-3.4892895, 40.312424], [-3.4894058, 40.3123352], [-3.4894684, 40.3122488], [-3.4894893, 40.3121923], [-3.4895061, 40.3121049], [-3.4894999, 40.3120367], [-3.4894788, 40.3119584], [-3.4894272, 40.3118844], [-3.4893613, 40.3118227], [-3.4892853, 40.3117705], [-3.4891889, 40.3117308], [-3.4890707, 40.3116969]]}, "properties": {"tipo": "via", "ref": "N-IIIa"}}, {"type": "Feature", "geometry": {"type": "LineString", "coordinates": [[-3.4541362, 40.304612], [-3.4541577, 40.3045708], [-3.4541679, 40.3045272], [-3.4541663, 40.3044828], [-3.454153, 40.3044397]]}, "properties": {"tipo": "via", "ref": "N-IIIa"}}, {"type": "Feature", "geometry": {"type": "LineString", "coordinates": [[-3.4474919, 40.3060622], [-3.4473212, 40.3061632], [-3.4472088, 40.3063089]]}, "properties": {"tipo": "via", "ref": "N-IIIa"}}, {"type": "Feature", "geometry": {"type": "LineString", "coordinates": [[-3.4483246, 40.3060351], [-3.4481854, 40.3059826], [-3.4480438, 40.3059616], [-3.4479069, 40.3059584], [-3.4476814, 40.3059938], [-3.4474919, 40.3060622]]}, "properties": {"tipo": "via", "ref": "N-IIIa"}}, {"type": "Feature", "geometry": {"type": "LineString", "coordinates": [[-3.4752823, 40.3086685], [-3.4752535, 40.308593]]}, "properties": {"tipo": "via", "ref": "N-IIIa"}}, {"type": "Feature", "geometry": {"type": "LineString", "coordinates": [[-3.4746526, 40.308498], [-3.4745983, 40.3085454], [-3.4745464, 40.3086269], [-3.4745306, 40.3087222]]}, "properties": {"tipo": "via", "ref": "N-IIIa"}}, {"type": "Feature", "geometry": {"type": "LineString", "coordinates": [[-3.454153, 40.3044397], [-3.4541458, 40.3044254], [-3.4541136, 40.3043822], [-3.4540695, 40.3043456], [-3.4540157, 40.3043176], [-3.453955, 40.3042996], [-3.4538924, 40.3042925], [-3.4538292, 40.3042961], [-3.4537686, 40.3043102]]}, "properties": {"tipo": "via", "ref": "N-IIIa"}}, {"type": "Feature", "geometry": {"type": "LineString", "coordinates": [[-3.4537204, 40.3043304], [-3.4536784, 40.3043571], [-3.4536437, 40.3043894], [-3.4536178, 40.3044261], [-3.4536014, 40.304466], [-3.4535953, 40.3045074], [-3.4535997, 40.304549]]}, "properties": {"tipo": "via", "ref": "N-IIIa"}}, {"type": "Feature", "geometry": {"type": "LineString", "coordinates": [[-3.4523966, 40.3043347], [-3.4524025, 40.3043724], [-3.4524143, 40.3044019], [-3.4524415, 40.3044349], [-3.4524978, 40.3044777], [-3.4525633, 40.3044946], [-3.452637, 40.3044992]]}, "properties": {"tipo": "via", "ref": "N-IIIa"}}, {"type": "Feature", "geometry": {"type": "LineString", "coordinates": [[-3.4636006, 40.3060537], [-3.4635324, 40.3060168], [-3.4634354, 40.3060017], [-3.4633642, 40.3060106], [-3.4633283, 40.3060187], [-3.463302, 40.3060283], [-3.4632875, 40.3060406]]}, "properties": {"tipo": "via", "ref": "N-IIIa"}}, {"type": "Feature", "geometry": {"type": "LineString", "coordinates": [[-3.4632708, 40.306062], [-3.4632354, 40.3061069], [-3.4632196, 40.3061585], [-3.4632321, 40.3062276]]}, "properties": {"tipo": "via", "ref": "N-IIIa"}}, {"type": "Feature", "geometry": {"type": "LineString", "coordinates": [[-3.4751922, 40.3089007], [-3.4752515, 40.3088312], [-3.4752817, 40.3087552], [-3.4752823, 40.3086685]]}, "properties": {"tipo": "via", "ref": "N-IIIa"}}, {"type": "Feature", "geometry": {"type": "LineString", "coordinates": [[-3.4632479, 40.3062489], [-3.4632691, 40.3062775], [-3.4633338, 40.3063185], [-3.4634176, 40.3063385], [-3.4634892, 40.3063353], [-3.4635552, 40.3063151]]}, "properties": {"tipo": "via", "ref": "N-IIIa"}}, {"type": "Feature", "geometry": {"type": "LineString", "coordinates": [[-3.4485702, 40.3064772], [-3.4485739, 40.3063952], [-3.4485403, 40.3062692], [-3.4484676, 40.3061698], [-3.4483954, 40.3060944], [-3.4483246, 40.3060351]]}, "properties": {"tipo": "via", "ref": "N-IIIa"}}, {"type": "Feature", "geometry": {"type": "LineString", "coordinates": [[-3.4541652, 40.3045917], [-3.4542395, 40.3045599], [-3.4543244, 40.3045404], [-3.4544314, 40.3045325], [-3.4545922, 40.3045421], [-3.4547693, 40.3045639], [-3.4554988, 40.3047005], [-3.4571948, 40.3050183], [-3.4576824, 40.3051113], [-3.4606507, 40.3056771], [-3.4630289, 40.3061332], [-3.4631436, 40.3061625], [-3.4632321, 40.3062276]]}, "properties": {"tipo": "via", "ref": "N-IIIa"}}, {"type": "Feature", "geometry": {"type": "LineString", "coordinates": [[-3.4478424, 40.3069643], [-3.4480449, 40.3069154], [-3.448255, 40.3068329], [-3.4483629, 40.3067662], [-3.4484678, 40.3066779]]}, "properties": {"tipo": "via", "ref": "N-IIIa"}}, {"type": "Feature", "geometry": {"type": "LineString", "coordinates": [[-3.452637, 40.3044992], [-3.4527115, 40.3044975], [-3.4529076, 40.3044721], [-3.453148, 40.3044384]]}, "properties": {"tipo": "via", "ref": "N-IIIa"}}, {"type": "Feature", "geometry": {"type": "LineString", "coordinates": [[-3.4524209, 40.3042656], [-3.4524044, 40.3043012], [-3.4523966, 40.3043347]]}, "properties": {"tipo": "via", "ref": "N-IIIa"}}, {"type": "Feature", "geometry": {"type": "LineString", "coordinates": [[-3.4538808, 40.3047296], [-3.4539494, 40.3047235], [-3.4540141, 40.304705], [-3.4540712, 40.3046752], [-3.4541075, 40.3046459], [-3.4541362, 40.304612]]}, "properties": {"tipo": "via", "ref": "N-IIIa"}}, {"type": "Feature", "geometry": {"type": "LineString", "coordinates": [[-3.5141613, 40.3190393], [-3.5139957, 40.3189249], [-3.5134366, 40.3184698], [-3.5128792, 40.3180872], [-3.5123175, 40.3177839], [-3.5119026, 40.3175958], [-3.5114349, 40.3174059], [-3.5108826, 40.3172125], [-3.5101007, 40.3170078], [-3.5075829, 40.3163948]]}, "properties": {"tipo": "via", "ref": "A-3"}}, {"type": "Feature", "geometry": {"type": "LineString", "coordinates": [[-3.5101868, 40.3171901], [-3.5107631, 40.3173428], [-3.5110084, 40.3174292], [-3.511704, 40.3176786]]}, "properties": {"tipo": "via", "ref": "A-3"}}, {"type": "Feature", "geometry": {"type": "LineString", "coordinates": [[-3.4984636, 40.314186], [-3.4981391, 40.3140871], [-3.4978264, 40.3139823], [-3.497465, 40.313847], [-3.4971575, 40.3137199], [-3.4966677, 40.313486], [-3.496044, 40.3131428], [-3.4956036, 40.3128582], [-3.4951093, 40.3124997], [-3.4947809, 40.3122274], [-3.4943457, 40.3118216], [-3.4939604, 40.3114218], [-3.4933775, 40.310785], [-3.4929434, 40.310303], [-3.4922389, 40.3095437]]}, "properties": {"tipo": "via", "ref": "A-3"}}, {"type": "Feature", "geometry": {"type": "LineString", "coordinates": [[-3.5075829, 40.3163948], [-3.5070901, 40.3162514]]}, "properties": {"tipo": "via", "ref": "A-3"}}, {"type": "Feature", "geometry": {"type": "LineString", "coordinates": [[-3.5123295, 40.3179695], [-3.5124508, 40.3180206], [-3.5127689, 40.3182023], [-3.5133284, 40.3185785], [-3.5138797, 40.3190197], [-3.5144019, 40.3195633], [-3.5145613, 40.3197629]]}, "properties": {"tipo": "via", "ref": "A-3"}}, {"type": "Feature", "geometry": {"type": "LineString", "coordinates": [[-3.5070901, 40.3162514], [-3.5043502, 40.3156011]]}, "properties": {"tipo": "via", "ref": "A-3"}}, {"type": "Feature", "geometry": {"type": "LineString", "coordinates": [[-3.5043502, 40.3156011], [-3.5007696, 40.3147496], [-3.4991513, 40.3143709], [-3.498862, 40.3142955], [-3.4986302, 40.314236], [-3.4984636, 40.314186]]}, "properties": {"tipo": "via", "ref": "A-3"}}, {"type": "Feature", "geometry": {"type": "LineString", "coordinates": [[-3.4898437, 40.306934], [-3.4841984, 40.3008083], [-3.4839133, 40.3005287], [-3.4835472, 40.300205], [-3.483051, 40.2998266], [-3.4825112, 40.2994722], [-3.4819948, 40.2991737], [-3.4811294, 40.2987733], [-3.4802979, 40.2984697], [-3.4797722, 40.2983062], [-3.4792121, 40.2981674]]}, "properties": {"tipo": "via", "ref": "A-3"}}, {"type": "Feature", "geometry": {"type": "LineString", "coordinates": [[-3.4707346, 40.2966035], [-3.4759364, 40.2976608], [-3.4791645, 40.2983226], [-3.4797159, 40.2984698], [-3.4802426, 40.2986253], [-3.4810064, 40.2989025], [-3.481873, 40.2993036], [-3.4823657, 40.2995944], [-3.4828834, 40.2999298], [-3.4833661, 40.3003071], [-3.48374, 40.3006267], [-3.4840183, 40.3008979], [-3.4885418, 40.3058134]]}, "properties": {"tipo": "via", "ref": "A-3"}}, {"type": "Feature", "geometry": {"type": "LineString", "coordinates": [[-3.4638561, 40.2943864], [-3.4634837, 40.2941562], [-3.4629501, 40.2937804], [-3.4625414, 40.2934492], [-3.4621091, 40.2930508], [-3.4615772, 40.2924605], [-3.4613267, 40.2921504], [-3.4609661, 40.2916223], [-3.4606427, 40.2910314], [-3.4585017, 40.2865493], [-3.4581378, 40.2858692], [-3.4576909, 40.2852038], [-3.4571658, 40.2845431], [-3.4560815, 40.2832898], [-3.4554867, 40.2825464], [-3.4553225, 40.2823332], [-3.4549451, 40.2817653], [-3.4546197, 40.2812416], [-3.4543086, 40.2806712], [-3.4540246, 40.2800519], [-3.4537839, 40.2794545], [-3.4536091, 40.2789554], [-3.4532324, 40.2777386], [-3.4530234, 40.2771495], [-3.4526953, 40.2764325], [-3.452307, 40.2758005], [-3.4521589, 40.2755944], [-3.4518959, 40.2752654], [-3.451526, 40.2748489], [-3.4510704, 40.2744011], [-3.4508034, 40.2741611]]}, "properties": {"tipo": "via", "ref": "A-3"}}, {"type": "Feature", "geometry": {"type": "LineString", "coordinates": [[-3.468173, 40.2958904], [-3.4675943, 40.2957741], [-3.4669023, 40.2956125], [-3.4664122, 40.2954784]]}, "properties": {"tipo": "via", "ref": "A-3"}}, {"type": "Feature", "geometry": {"type": "LineString", "coordinates": [[-3.4612127, 40.2923311], [-3.4615027, 40.2926917], [-3.4619491, 40.293174], [-3.4623439, 40.2935544], [-3.4625313, 40.2937042]]}, "properties": {"tipo": "via", "ref": "A-3"}}, {"type": "Feature", "geometry": {"type": "LineString", "coordinates": [[-3.4625313, 40.2937042], [-3.4633733, 40.2943015], [-3.4640652, 40.2947149], [-3.4646419, 40.2950084], [-3.4652723, 40.2952831], [-3.4657804, 40.2954711]]}, "properties": {"tipo": "via", "ref": "A-3"}}, {"type": "Feature", "geometry": {"type": "LineString", "coordinates": [[-3.4016564, 40.2667007], [-3.4022614, 40.2663656], [-3.402653, 40.2661316], [-3.4039055, 40.2653014]]}, "properties": {"tipo": "via", "ref": "A-3"}}, {"type": "Feature", "geometry": {"type": "LineString", "coordinates": [[-3.4039055, 40.2653014], [-3.4041101, 40.2651852], [-3.4046491, 40.2648944], [-3.4053073, 40.2646036], [-3.4059318, 40.2643702], [-3.4064141, 40.2642272], [-3.4070752, 40.2640654], [-3.4078802, 40.2639234], [-3.4086185, 40.2638392], [-3.4094321, 40.2638053], [-3.4099261, 40.2638114], [-3.410727, 40.2638606], [-3.4114817, 40.2639584], [-3.4121697, 40.264094], [-3.4129193, 40.2642867], [-3.4136095, 40.2645178], [-3.4142888, 40.2647954], [-3.4158102, 40.2655543], [-3.4166208, 40.2659214], [-3.4173632, 40.2662055], [-3.4180679, 40.2664425], [-3.4189134, 40.2666695], [-3.4197149, 40.2668434], [-3.4206003, 40.266992], [-3.4214522, 40.2670878], [-3.422459, 40.2671785], [-3.4233054, 40.2672827], [-3.4240366, 40.2673972], [-3.4248822, 40.2675823], [-3.4256231, 40.2677781], [-3.4269683, 40.2681603], [-3.4275641, 40.2683058], [-3.4281903, 40.2684385], [-3.4289645, 40.2685754], [-3.4295664, 40.2686549], [-3.4302566, 40.2687302], [-3.4318125, 40.2688648], [-3.4328301, 40.2689788], [-3.4334733, 40.2690702]]}, "properties": {"tipo": "via", "ref": "A-3"}}, {"type": "Feature", "geometry": {"type": "LineString", "coordinates": [[-3.3931706, 40.2672552], [-3.3927066, 40.2671078], [-3.3921873, 40.2669307], [-3.3916673, 40.2667101]]}, "properties": {"tipo": "via", "ref": "A-3"}}, {"type": "Feature", "geometry": {"type": "LineString", "coordinates": [[-3.3916673, 40.2667101], [-3.3910264, 40.2664024], [-3.3905883, 40.266156], [-3.3901146, 40.2658465], [-3.3883309, 40.264554], [-3.3871769, 40.2637164], [-3.3868163, 40.2634027]]}, "properties": {"tipo": "via", "ref": "A-3"}}, {"type": "Feature", "geometry": {"type": "LineString", "coordinates": [[-3.4454667, 40.2718315], [-3.4469827, 40.2723413]]}, "properties": {"tipo": "via", "ref": "A-3"}}, {"type": "Feature", "geometry": {"type": "LineString", "coordinates": [[-3.4022339, 40.2661403], [-3.4014974, 40.2665344], [-3.400931, 40.2668002], [-3.4008069, 40.266851]]}, "properties": {"tipo": "via", "ref": "A-3"}}, {"type": "Feature", "geometry": {"type": "LineString", "coordinates": [[-3.3868163, 40.2634027], [-3.3850345, 40.2620918]]}, "properties": {"tipo": "via", "ref": "A-3"}}, {"type": "Feature", "geometry": {"type": "LineString", "coordinates": [[-3.4508034, 40.2741611], [-3.4504656, 40.2738851], [-3.4501015, 40.2736236]]}, "properties": {"tipo": "via", "ref": "A-3"}}, {"type": "Feature", "geometry": {"type": "LineString", "coordinates": [[-3.397728, 40.2676317], [-3.3974422, 40.2676621], [-3.3971762, 40.2676727], [-3.3959724, 40.2677019], [-3.3953558, 40.2676689], [-3.3949533, 40.2676255], [-3.3943199, 40.2675329], [-3.3936058, 40.2673858], [-3.3931706, 40.2672552]]}, "properties": {"tipo": "via", "ref": "A-3"}}, {"type": "Feature", "geometry": {"type": "LineString", "coordinates": [[-3.4446412, 40.2714392], [-3.4440592, 40.2713058], [-3.4432692, 40.2711441], [-3.4418479, 40.2708834], [-3.4407252, 40.2706564], [-3.4399124, 40.2704721]]}, "properties": {"tipo": "via", "ref": "A-3"}}, {"type": "Feature", "geometry": {"type": "LineString", "coordinates": [[-3.4376117, 40.2698876], [-3.4366135, 40.2695998], [-3.4357121, 40.2693634], [-3.4349129, 40.2691763], [-3.4343726, 40.2690722]]}, "properties": {"tipo": "via", "ref": "A-3"}}, {"type": "Feature", "geometry": {"type": "LineString", "coordinates": [[-3.3818078, 40.2598178], [-3.3810652, 40.2593797], [-3.3803057, 40.2589786], [-3.3794903, 40.2585978], [-3.3789409, 40.2583689], [-3.3780044, 40.2580206], [-3.3771461, 40.2577463], [-3.376183, 40.2574844]]}, "properties": {"tipo": "via", "ref": "A-3"}}, {"type": "Feature", "geometry": {"type": "LineString", "coordinates": [[-3.446751, 40.2720472], [-3.4455507, 40.2716688], [-3.4446412, 40.2714392]]}, "properties": {"tipo": "via", "ref": "A-3"}}, {"type": "Feature", "geometry": {"type": "LineString", "coordinates": [[-3.4469827, 40.2723413], [-3.4474724, 40.2725008], [-3.4479765, 40.2727055], [-3.4485154, 40.2729454], [-3.4491732, 40.2732833]]}, "properties": {"tipo": "via", "ref": "A-3"}}, {"type": "Feature", "geometry": {"type": "LineString", "coordinates": [[-3.4063307, 40.2640935], [-3.4058518, 40.2642393], [-3.4052175, 40.264459], [-3.4045271, 40.2647627], [-3.4037629, 40.2651672], [-3.4025192, 40.2659781], [-3.4022339, 40.2661403]]}, "properties": {"tipo": "via", "ref": "A-3"}}, {"type": "Feature", "geometry": {"type": "LineString", "coordinates": [[-3.453148, 40.3044384], [-3.453289, 40.3044297], [-3.4534024, 40.3044369], [-3.4534778, 40.3044632], [-3.4535448, 40.3044982], [-3.4535997, 40.304549]]}, "properties": {"tipo": "via", "ref": "N-IIIa"}}, {"type": "Feature", "geometry": {"type": "LineString", "coordinates": [[-3.4503616, 40.3052423], [-3.4506935, 40.30509], [-3.4512148, 40.3048931], [-3.4514858, 40.3048054], [-3.4517663, 40.30473], [-3.4522309, 40.3046118], [-3.4525146, 40.3045487], [-3.4525737, 40.304529], [-3.452637, 40.3044992]]}, "properties": {"tipo": "via", "ref": "N-IIIa"}}, {"type": "Feature", "geometry": {"type": "LineString", "coordinates": [[-3.4546204, 40.3044619], [-3.4544098, 40.3044468], [-3.4542184, 40.3044426], [-3.454153, 40.3044397]]}, "properties": {"tipo": "via", "ref": "N-IIIa"}}, {"type": "Feature", "geometry": {"type": "LineString", "coordinates": [[-3.4450346, 40.3269412], [-3.4444128, 40.3264427], [-3.443884, 40.3259699], [-3.4436296, 40.3257463], [-3.4431222, 40.3252808], [-3.4428379, 40.3250089], [-3.4425454, 40.3247009], [-3.4421083, 40.324242], [-3.4416662, 40.3237337], [-3.4411803, 40.3231357], [-3.4406775, 40.3224613], [-3.440095, 40.321625], [-3.4395683, 40.320831], [-3.4391353, 40.3202126], [-3.43871, 40.3196183], [-3.4382191, 40.3189791], [-3.4377444, 40.318422], [-3.4373269, 40.3179491], [-3.4368163, 40.3174117], [-3.4363447, 40.3169569], [-3.436017, 40.3166509], [-3.4356898, 40.3163564], [-3.4351259, 40.3158938], [-3.4342403, 40.3151812]]}, "properties": {"tipo": "via", "ref": "R-3"}}, {"type": "Feature", "geometry": {"type": "LineString", "coordinates": [[-3.4500295, 40.3506054], [-3.4499939, 40.3497852], [-3.4499963, 40.3488017], [-3.4500434, 40.3472964], [-3.4500933, 40.3458062], [-3.4501398, 40.3443552], [-3.4502949, 40.3389512]]}, "properties": {"tipo": "via", "ref": "R-3"}}, {"type": "Feature", "geometry": {"type": "LineString", "coordinates": [[-3.4499054, 40.3412137], [-3.4499088, 40.3415847], [-3.4498344, 40.343985], [-3.449711, 40.3480242], [-3.4496865, 40.3487785], [-3.4496611, 40.3499148]]}, "properties": {"tipo": "via", "ref": "R-3"}}, {"type": "Feature", "geometry": {"type": "LineString", "coordinates": [[-3.4535997, 40.304549], [-3.4536135, 40.3045878], [-3.4536365, 40.3046239]]}, "properties": {"tipo": "via", "ref": "N-IIIa"}}, {"type": "Feature", "geometry": {"type": "LineString", "coordinates": [[-3.4537686, 40.3043102], [-3.4537204, 40.3043304]]}, "properties": {"tipo": "via", "ref": "N-IIIa"}}, {"type": "Feature", "geometry": {"type": "LineString", "coordinates": [[-3.3862694, 40.2633093], [-3.3890486, 40.2653505]]}, "properties": {"tipo": "via", "ref": "A-3"}}, {"type": "Feature", "geometry": {"type": "LineString", "coordinates": [[-3.3890486, 40.2653505], [-3.3892367, 40.2654402], [-3.3900331, 40.2660109], [-3.3904745, 40.2662999], [-3.3909621, 40.2665677], [-3.3915696, 40.2668703], [-3.3921189, 40.2670965], [-3.3926163, 40.2672761], [-3.3927081, 40.2673072]]}, "properties": {"tipo": "via", "ref": "A-3"}}, {"type": "Feature", "geometry": {"type": "LineString", "coordinates": [[-3.4993475, 40.3145732], [-3.5007005, 40.3149103], [-3.5058285, 40.3161301]]}, "properties": {"tipo": "via", "ref": "A-3"}}, {"type": "Feature", "geometry": {"type": "LineString", "coordinates": [[-3.511704, 40.3176786], [-3.5122297, 40.3179246], [-3.5123295, 40.3179695]]}, "properties": {"tipo": "via", "ref": "A-3"}}, {"type": "Feature", "geometry": {"type": "LineString", "coordinates": [[-3.4922776, 40.3098752], [-3.4928265, 40.3104959]]}, "properties": {"tipo": "via", "ref": "A-3"}}, {"type": "Feature", "geometry": {"type": "LineString", "coordinates": [[-3.4920451, 40.3096178], [-3.4922776, 40.3098752]]}, "properties": {"tipo": "via", "ref": "A-3"}}, {"type": "Feature", "geometry": {"type": "LineString", "coordinates": [[-3.4922389, 40.3095437], [-3.4918573, 40.3091331]]}, "properties": {"tipo": "via", "ref": "A-3"}}, {"type": "Feature", "geometry": {"type": "LineString", "coordinates": [[-3.4916626, 40.3092048], [-3.4920451, 40.3096178]]}, "properties": {"tipo": "via", "ref": "A-3"}}, {"type": "Feature", "geometry": {"type": "LineString", "coordinates": [[-3.4918573, 40.3091331], [-3.4911183, 40.3083295], [-3.4906321, 40.3077774]]}, "properties": {"tipo": "via", "ref": "A-3"}}, {"type": "Feature", "geometry": {"type": "LineString", "coordinates": [[-3.493192, 40.3108592], [-3.4937791, 40.3115063], [-3.4941761, 40.3119194], [-3.4946213, 40.3123293], [-3.4949496, 40.3125977], [-3.4952607, 40.3128329], [-3.4954799, 40.3129847], [-3.4958927, 40.3132492], [-3.4965643, 40.3136132], [-3.4970884, 40.3138601], [-3.4973914, 40.313982], [-3.4978496, 40.3141521], [-3.4985707, 40.3143763], [-3.4993475, 40.3145732]]}, "properties": {"tipo": "via", "ref": "A-3"}}, {"type": "Feature", "geometry": {"type": "LineString", "coordinates": [[-3.4906321, 40.3077774], [-3.4898437, 40.306934]]}, "properties": {"tipo": "via", "ref": "A-3"}}, {"type": "Feature", "geometry": {"type": "LineString", "coordinates": [[-3.4737017, 40.2970337], [-3.4721968, 40.2967119]]}, "properties": {"tipo": "via", "ref": "A-3"}}, {"type": "Feature", "geometry": {"type": "LineString", "coordinates": [[-3.4721968, 40.2967119], [-3.4714473, 40.2965734], [-3.4686991, 40.2960129], [-3.468173, 40.2958904]]}, "properties": {"tipo": "via", "ref": "A-3"}}, {"type": "Feature", "geometry": {"type": "LineString", "coordinates": [[-3.4686365, 40.2961806], [-3.4707346, 40.2966035]]}, "properties": {"tipo": "via", "ref": "A-3"}}, {"type": "Feature", "geometry": {"type": "LineString", "coordinates": [[-3.4520943, 40.2758808], [-3.4524847, 40.2765121], [-3.4528186, 40.2771835]]}, "properties": {"tipo": "via", "ref": "A-3"}}, {"type": "Feature", "geometry": {"type": "LineString", "coordinates": [[-3.4500996, 40.2738643], [-3.4504381, 40.2741157], [-3.4509338, 40.274534], [-3.4513577, 40.2749422], [-3.4517102, 40.275339], [-3.451954, 40.275648], [-3.4520943, 40.2758808]]}, "properties": {"tipo": "via", "ref": "A-3"}}, {"type": "Feature", "geometry": {"type": "LineString", "coordinates": [[-3.4094135, 40.2636659], [-3.4085813, 40.2637118], [-3.4078498, 40.2637845], [-3.4070044, 40.2639277], [-3.4063307, 40.2640935]]}, "properties": {"tipo": "via", "ref": "A-3"}}, {"type": "Feature", "geometry": {"type": "LineString", "coordinates": [[-3.4008069, 40.266851], [-3.400326, 40.2670333], [-3.3999767, 40.2671574], [-3.3990965, 40.2673867], [-3.3984447, 40.2675162]]}, "properties": {"tipo": "via", "ref": "A-3"}}, {"type": "Feature", "geometry": {"type": "LineString", "coordinates": [[-3.3927081, 40.2673072], [-3.3933868, 40.267503], [-3.393701, 40.2675719]]}, "properties": {"tipo": "via", "ref": "A-3"}}, {"type": "Feature", "geometry": {"type": "LineString", "coordinates": [[-3.4282249, 40.2963407], [-3.4277463, 40.2959916], [-3.4265542, 40.2950556], [-3.4263112, 40.2948461], [-3.4262854, 40.2948093], [-3.4262441, 40.2947261]]}, "properties": {"tipo": "via", "ref": "N-IIIa"}}, {"type": "Feature", "geometry": {"type": "LineString", "coordinates": [[-3.4472391, 40.3067198], [-3.4472914, 40.3067781], [-3.4473518, 40.3068267]]}, "properties": {"tipo": "via", "ref": "N-IIIa"}}, {"type": "Feature", "geometry": {"type": "LineString", "coordinates": [[-3.3975085, 40.2672798], [-3.3986543, 40.2679762]]}, "properties": {"tipo": "via", "ref": "N-IIIa"}}, {"type": "Feature", "geometry": {"type": "LineString", "coordinates": [[-3.3963432, 40.2665626], [-3.3967052, 40.2667827], [-3.3975085, 40.2672798]]}, "properties": {"tipo": "via", "ref": "N-IIIa"}}, {"type": "Feature", "geometry": {"type": "LineString", "coordinates": [[-3.4447744, 40.3269978], [-3.445092, 40.3272999], [-3.4457529, 40.3279412], [-3.4467571, 40.3289684], [-3.447682, 40.3300194], [-3.448438, 40.3310866]]}, "properties": {"tipo": "via", "ref": "R-3"}}, {"type": "Feature", "geometry": {"type": "LineString", "coordinates": [[-3.4488379, 40.3311518], [-3.44827, 40.3302363], [-3.4479404, 40.3297667], [-3.4471453, 40.328762], [-3.4457346, 40.327542], [-3.4450346, 40.3269412]]}, "properties": {"tipo": "via", "ref": "R-3"}}, {"type": "Feature", "geometry": {"type": "LineString", "coordinates": [[-3.4502949, 40.3389512], [-3.45034, 40.3377145], [-3.4503588, 40.336588], [-3.4503384, 40.3360115], [-3.4502998, 40.3355903]]}, "properties": {"tipo": "via", "ref": "R-3"}}, {"type": "Feature", "geometry": {"type": "LineString", "coordinates": [[-3.448438, 40.3310866], [-3.4486824, 40.3314949], [-3.448926, 40.331966], [-3.4491304, 40.3324048], [-3.4493126, 40.3328561], [-3.4494871, 40.3333371], [-3.4496719, 40.3339421], [-3.4498116, 40.3345046], [-3.4498822, 40.3348465], [-3.4499753, 40.3354676], [-3.4500333, 40.3360208], [-3.4500477, 40.3365124], [-3.4500509, 40.3370286], [-3.4499054, 40.3412137]]}, "properties": {"tipo": "via", "ref": "R-3"}}, {"type": "Feature", "geometry": {"type": "LineString", "coordinates": [[-3.4257281, 40.2946003], [-3.4257173, 40.2946413]]}, "properties": {"tipo": "via", "ref": "N-IIIa"}}, {"type": "Feature", "geometry": {"type": "LineString", "coordinates": [[-3.4259441, 40.2944573], [-3.4258723, 40.2944741], [-3.4258093, 40.2945053], [-3.42576, 40.2945485], [-3.4257281, 40.2946003]]}, "properties": {"tipo": "via", "ref": "N-IIIa"}}, {"type": "Feature", "geometry": {"type": "LineString", "coordinates": [[-3.4260265, 40.2948657], [-3.4260981, 40.2948497], [-3.4261612, 40.2948194], [-3.4262112, 40.2947772], [-3.4262441, 40.2947261]]}, "properties": {"tipo": "via", "ref": "N-IIIa"}}, {"type": "Feature", "geometry": {"type": "LineString", "coordinates": [[-3.4257937, 40.2948061], [-3.4258617, 40.2948445], [-3.4259419, 40.294865], [-3.4260265, 40.2948657]]}, "properties": {"tipo": "via", "ref": "N-IIIa"}}, {"type": "Feature", "geometry": {"type": "LineString", "coordinates": [[-3.4257173, 40.2946413], [-3.4257211, 40.2947012], [-3.4257473, 40.2947577], [-3.4257937, 40.2948061]]}, "properties": {"tipo": "via", "ref": "N-IIIa"}}, {"type": "Feature", "geometry": {"type": "LineString", "coordinates": [[-3.3869294, 40.2606696], [-3.3868773, 40.2607261], [-3.3868428, 40.26079], [-3.3868276, 40.2608581]]}, "properties": {"tipo": "via", "ref": "N-IIIa"}}, {"type": "Feature", "geometry": {"type": "LineString", "coordinates": [[-3.3873421, 40.2611754], [-3.3874187, 40.2611527], [-3.3874879, 40.2611188], [-3.3875466, 40.261075]]}, "properties": {"tipo": "via", "ref": "N-IIIa"}}, {"type": "Feature", "geometry": {"type": "LineString", "coordinates": [[-3.3868276, 40.2608581], [-3.3868336, 40.2609315], [-3.3868619, 40.2610017], [-3.3869111, 40.2610648], [-3.3869783, 40.2611174], [-3.3870598, 40.2611565], [-3.387151, 40.2611799], [-3.3872469, 40.2611863], [-3.3873421, 40.2611754]]}, "properties": {"tipo": "via", "ref": "N-IIIa"}}, {"type": "Feature", "geometry": {"type": "LineString", "coordinates": [[-3.4295621, 40.2976067], [-3.4294985, 40.2975889], [-3.4294316, 40.2975808]]}, "properties": {"tipo": "via", "ref": "N-IIIa"}}, {"type": "Feature", "geometry": {"type": "LineString", "coordinates": [[-3.4297358, 40.2979343], [-3.4297563, 40.2978587], [-3.4297471, 40.2977818], [-3.4297092, 40.2977103], [-3.4296457, 40.2976502], [-3.4295621, 40.2976067]]}, "properties": {"tipo": "via", "ref": "N-IIIa"}}, {"type": "Feature", "geometry": {"type": "LineString", "coordinates": [[-3.4296963, 40.2979927], [-3.4297358, 40.2979343]]}, "properties": {"tipo": "via", "ref": "N-IIIa"}}, {"type": "Feature", "geometry": {"type": "LineString", "coordinates": [[-3.4293445, 40.2981021], [-3.4294777, 40.2981022], [-3.4296011, 40.2980638], [-3.4296963, 40.2979927]]}, "properties": {"tipo": "via", "ref": "N-IIIa"}}, {"type": "Feature", "geometry": {"type": "LineString", "coordinates": [[-3.4294316, 40.2975808], [-3.4293104, 40.2975919], [-3.4292019, 40.2976344], [-3.4291195, 40.2977031]]}, "properties": {"tipo": "via", "ref": "N-IIIa"}}, {"type": "Feature", "geometry": {"type": "LineString", "coordinates": [[-3.4472088, 40.3063089], [-3.4471608, 40.3064298]]}, "properties": {"tipo": "via", "ref": "N-IIIa"}}, {"type": "Feature", "geometry": {"type": "LineString", "coordinates": [[-3.4410749, 40.3052182], [-3.441132, 40.3051504], [-3.4411579, 40.3050722], [-3.4411498, 40.3049919]]}, "properties": {"tipo": "via", "ref": "N-IIIa"}}, {"type": "Feature", "geometry": {"type": "LineString", "coordinates": [[-3.4405198, 40.3051293], [-3.44057, 40.3052022], [-3.4406486, 40.3052586], [-3.440747, 40.3052926]]}, "properties": {"tipo": "via", "ref": "N-IIIa"}}, {"type": "Feature", "geometry": {"type": "LineString", "coordinates": [[-3.4405826, 40.3048877], [-3.4405251, 40.304961], [-3.4405033, 40.3050448], [-3.4405198, 40.3051293]]}, "properties": {"tipo": "via", "ref": "N-IIIa"}}, {"type": "Feature", "geometry": {"type": "LineString", "coordinates": [[-3.4407377, 40.3048111], [-3.4406529, 40.3048409], [-3.4405826, 40.3048877]]}, "properties": {"tipo": "via", "ref": "N-IIIa"}}, {"type": "Feature", "geometry": {"type": "LineString", "coordinates": [[-3.4367268, 40.3049216], [-3.4367866, 40.3048461], [-3.4368036, 40.3047588]]}, "properties": {"tipo": "via", "ref": "N-IIIa"}}, {"type": "Feature", "geometry": {"type": "LineString", "coordinates": [[-3.4364724, 40.3045479], [-3.4363863, 40.3045669], [-3.4363117, 40.3046048], [-3.4362556, 40.3046581]]}, "properties": {"tipo": "via", "ref": "N-IIIa"}}, {"type": "Feature", "geometry": {"type": "LineString", "coordinates": [[-3.4368036, 40.3047588], [-3.436783, 40.3046869], [-3.4367329, 40.304624], [-3.4366589, 40.3045769], [-3.4365688, 40.3045506], [-3.4364724, 40.3045479]]}, "properties": {"tipo": "via", "ref": "N-IIIa"}}, {"type": "Feature", "geometry": {"type": "LineString", "coordinates": [[-3.4749765, 40.3089939], [-3.4750556, 40.3089758], [-3.4751295, 40.3089441]]}, "properties": {"tipo": "via", "ref": "N-IIIa"}}, {"type": "Feature", "geometry": {"type": "LineString", "coordinates": [[-3.4746491, 40.3089202], [-3.4747483, 40.3089716], [-3.4748598, 40.3089963], [-3.4749765, 40.3089939]]}, "properties": {"tipo": "via", "ref": "N-IIIa"}}, {"type": "Feature", "geometry": {"type": "LineString", "coordinates": [[-3.4484678, 40.3066779], [-3.448521, 40.3065972], [-3.4485702, 40.3064772]]}, "properties": {"tipo": "via", "ref": "N-IIIa"}}, {"type": "Feature", "geometry": {"type": "LineString", "coordinates": [[-3.4473518, 40.3068267], [-3.4474171, 40.3068674], [-3.447502, 40.3069081], [-3.4475749, 40.306931]]}, "properties": {"tipo": "via", "ref": "N-IIIa"}}, {"type": "Feature", "geometry": {"type": "LineString", "coordinates": [[-3.4632321, 40.3062276], [-3.4632479, 40.3062489]]}, "properties": {"tipo": "via", "ref": "N-IIIa"}}, {"type": "Feature", "geometry": {"type": "LineString", "coordinates": [[-3.4541362, 40.304612], [-3.4541652, 40.3045917]]}, "properties": {"tipo": "via", "ref": "N-IIIa"}}, {"type": "Feature", "geometry": {"type": "LineString", "coordinates": [[-3.4746526, 40.308498], [-3.4745614, 40.3085123]]}, "properties": {"tipo": "via", "ref": "N-IIIa"}}, {"type": "Feature", "geometry": {"type": "LineString", "coordinates": [[-3.4636526, 40.3061218], [-3.4636006, 40.3060537]]}, "properties": {"tipo": "via", "ref": "N-IIIa"}}, {"type": "Feature", "geometry": {"type": "LineString", "coordinates": [[-3.426085, 40.2944687], [-3.4260155, 40.2944559], [-3.4259441, 40.2944573]]}, "properties": {"tipo": "via", "ref": "N-IIIa"}}, {"type": "Feature", "geometry": {"type": "LineString", "coordinates": [[-3.4261609, 40.294503], [-3.426085, 40.2944687]]}, "properties": {"tipo": "via", "ref": "N-IIIa"}}, {"type": "Feature", "geometry": {"type": "LineString", "coordinates": [[-3.4745306, 40.3087222], [-3.4745459, 40.3087924], [-3.4745802, 40.3088536], [-3.4746491, 40.3089202]]}, "properties": {"tipo": "via", "ref": "N-IIIa"}}, {"type": "Feature", "geometry": {"type": "LineString", "coordinates": [[-3.3844056, 40.2593128], [-3.3853551, 40.2598805]]}, "properties": {"tipo": "via", "ref": "N-IIIa"}}, {"type": "Feature", "geometry": {"type": "LineString", "coordinates": [[-3.3853551, 40.2598805], [-3.3865871, 40.2606183]]}, "properties": {"tipo": "via", "ref": "N-IIIa"}}, {"type": "Feature", "geometry": {"type": "LineString", "coordinates": [[-3.4262441, 40.2947261], [-3.4262551, 40.2946902], [-3.4262576, 40.294654]]}, "properties": {"tipo": "via", "ref": "N-IIIa"}}, {"type": "Feature", "geometry": {"type": "LineString", "coordinates": [[-3.4632875, 40.3060406], [-3.4632708, 40.306062]]}, "properties": {"tipo": "via", "ref": "N-IIIa"}}, {"type": "Feature", "geometry": {"type": "LineString", "coordinates": [[-3.4555269, 40.3046149], [-3.4547979, 40.304476], [-3.4546204, 40.3044619]]}, "properties": {"tipo": "via", "ref": "N-IIIa"}}, {"type": "Feature", "geometry": {"type": "LineString", "coordinates": [[-3.4731869, 40.3083433], [-3.4742029, 40.3085802], [-3.4743822, 40.3086375], [-3.4745306, 40.3087222]]}, "properties": {"tipo": "via", "ref": "N-IIIa"}}, {"type": "Feature", "geometry": {"type": "LineString", "coordinates": [[-3.4635552, 40.3063151], [-3.4636019, 40.3062863]]}, "properties": {"tipo": "via", "ref": "N-IIIa"}}, {"type": "Feature", "geometry": {"type": "LineString", "coordinates": [[-3.4875415, 40.3118051], [-3.4878667, 40.3118858], [-3.4879947, 40.3119204], [-3.4881227, 40.3119564], [-3.488231, 40.3120098], [-3.48832, 40.3120628], [-3.4884499, 40.3121703]]}, "properties": {"tipo": "via", "ref": "N-IIIa"}}, {"type": "Feature", "geometry": {"type": "LineString", "coordinates": [[-3.4751295, 40.3089441], [-3.4751922, 40.3089007]]}, "properties": {"tipo": "via", "ref": "N-IIIa"}}, {"type": "Feature", "geometry": {"type": "LineString", "coordinates": [[-3.4890707, 40.3116969], [-3.4889551, 40.3116974], [-3.4888355, 40.3117142], [-3.4887088, 40.3117537], [-3.4886167, 40.3117995]]}, "properties": {"tipo": "via", "ref": "N-IIIa"}}, {"type": "Feature", "geometry": {"type": "LineString", "coordinates": [[-3.4888248, 40.3124851], [-3.4888699, 40.3124909], [-3.488955, 40.3125002], [-3.489046, 40.3124971], [-3.4891334, 40.3124835], [-3.4891939, 40.3124666], [-3.4892895, 40.312424]]}, "properties": {"tipo": "via", "ref": "N-IIIa"}}, {"type": "Feature", "geometry": {"type": "LineString", "coordinates": [[-3.4886167, 40.3117995], [-3.4885479, 40.3118629], [-3.4884888, 40.3119532], [-3.4884552, 40.3120603], [-3.4884499, 40.3121703]]}, "properties": {"tipo": "via", "ref": "N-IIIa"}}, {"type": "Feature", "geometry": {"type": "LineString", "coordinates": [[-3.4885037, 40.3122834], [-3.4885531, 40.3123406], [-3.4886409, 40.3124072], [-3.4887244, 40.3124502], [-3.4888248, 40.3124851]]}, "properties": {"tipo": "via", "ref": "N-IIIa"}}, {"type": "Feature", "geometry": {"type": "LineString", "coordinates": [[-3.4884499, 40.3121703], [-3.4885037, 40.3122834]]}, "properties": {"tipo": "via", "ref": "N-IIIa"}}, {"type": "Feature", "geometry": {"type": "LineString", "coordinates": [[-3.4928265, 40.3104959], [-3.493192, 40.3108592]]}, "properties": {"tipo": "via", "ref": "A-3"}}, {"type": "Feature", "geometry": {"type": "LineString", "coordinates": [[-3.4885418, 40.3058134], [-3.4896774, 40.3070473], [-3.4909748, 40.3084603], [-3.4916626, 40.3092048]]}, "properties": {"tipo": "via", "ref": "A-3"}}, {"type": "Feature", "geometry": {"type": "LineString", "coordinates": [[-3.4113504, 40.2791048], [-3.4128517, 40.2808042]]}, "properties": {"tipo": "via", "ref": "N-IIIa"}}, {"type": "Feature", "geometry": {"type": "LineString", "coordinates": [[-3.4886167, 40.3117995], [-3.4884826, 40.3118504], [-3.4883613, 40.3118688], [-3.488248, 40.3118779], [-3.4881111, 40.3118722], [-3.4879003, 40.3118289], [-3.4875708, 40.3117437], [-3.4873289, 40.3116745]]}, "properties": {"tipo": "via", "ref": "N-IIIa"}}, {"type": "Feature", "geometry": {"type": "LineString", "coordinates": [[-3.4409775, 40.3052746], [-3.4410749, 40.3052182]]}, "properties": {"tipo": "via", "ref": "N-IIIa"}}, {"type": "Feature", "geometry": {"type": "LineString", "coordinates": [[-3.440747, 40.3052926], [-3.4408644, 40.3052996], [-3.4409775, 40.3052746]]}, "properties": {"tipo": "via", "ref": "N-IIIa"}}, {"type": "Feature", "geometry": {"type": "LineString", "coordinates": [[-3.3884546, 40.2617525], [-3.3885705, 40.2618235], [-3.389946, 40.262665], [-3.3899879, 40.2626887], [-3.3913969, 40.2635424], [-3.3928739, 40.2644554], [-3.3932867, 40.2647076], [-3.3938277, 40.2650193]]}, "properties": {"tipo": "via", "ref": "N-IIIa"}}, {"type": "Feature", "geometry": {"type": "LineString", "coordinates": [[-3.4475749, 40.306931], [-3.447683, 40.3069509], [-3.4478424, 40.3069643]]}, "properties": {"tipo": "via", "ref": "N-IIIa"}}, {"type": "Feature", "geometry": {"type": "LineString", "coordinates": [[-3.5058285, 40.3161301], [-3.5101868, 40.3171901]]}, "properties": {"tipo": "via", "ref": "A-3"}}, {"type": "Feature", "geometry": {"type": "LineString", "coordinates": [[-3.4792121, 40.2981674], [-3.4759914, 40.2975015], [-3.4737017, 40.2970337]]}, "properties": {"tipo": "via", "ref": "A-3"}}, {"type": "Feature", "geometry": {"type": "LineString", "coordinates": [[-3.3850345, 40.2620918], [-3.3828163, 40.2605137], [-3.3818078, 40.2598178]]}, "properties": {"tipo": "via", "ref": "A-3"}}, {"type": "Feature", "geometry": {"type": "LineString", "coordinates": [[-3.4444765, 40.3267488], [-3.4446242, 40.3268759], [-3.4447744, 40.3269978]]}, "properties": {"tipo": "via", "ref": "R-3"}}, {"type": "Feature", "geometry": {"type": "LineString", "coordinates": [[-3.4495609, 40.3326696], [-3.4494882, 40.3324884], [-3.449387, 40.3322362], [-3.4492831, 40.3320037], [-3.4491839, 40.3318004], [-3.4490865, 40.3316212], [-3.4490048, 40.3314647], [-3.4489213, 40.3313083], [-3.4488379, 40.3311518]]}, "properties": {"tipo": "via", "ref": "R-3"}}, {"type": "Feature", "geometry": {"type": "LineString", "coordinates": [[-3.4502998, 40.3355903], [-3.4502274, 40.3350914], [-3.4500648, 40.334247], [-3.4499109, 40.3336929], [-3.4498243, 40.3333994], [-3.4497285, 40.3330877], [-3.4496083, 40.3327881], [-3.4495609, 40.3326696]]}, "properties": {"tipo": "via", "ref": "R-3"}}, {"type": "Feature", "geometry": {"type": "LineString", "coordinates": [[-3.4862562, 40.3114088], [-3.4859754, 40.3113394]]}, "properties": {"tipo": "via", "ref": "N-IIIa"}}, {"type": "Feature", "geometry": {"type": "LineString", "coordinates": [[-3.4859754, 40.3113394], [-3.4853505, 40.311185], [-3.4842448, 40.3109157], [-3.4813844, 40.3102317], [-3.4793474, 40.3097376], [-3.4774408, 40.3092785], [-3.4769686, 40.3091648], [-3.4755482, 40.3088264], [-3.475411, 40.3087674], [-3.4752823, 40.3086685]]}, "properties": {"tipo": "via", "ref": "N-IIIa"}}, {"type": "Feature", "geometry": {"type": "LineString", "coordinates": [[-3.4752535, 40.308593], [-3.4752138, 40.3085407], [-3.4751444, 40.3084853]]}, "properties": {"tipo": "via", "ref": "N-IIIa"}}, {"type": "Feature", "geometry": {"type": "LineString", "coordinates": [[-3.4751444, 40.3084853], [-3.4750559, 40.308445], [-3.4749469, 40.3084236], [-3.4748369, 40.3084273], [-3.4747358, 40.3084539]]}, "properties": {"tipo": "via", "ref": "N-IIIa"}}, {"type": "Feature", "geometry": {"type": "LineString", "coordinates": [[-3.4747358, 40.3084539], [-3.4746526, 40.308498]]}, "properties": {"tipo": "via", "ref": "N-IIIa"}}, {"type": "Feature", "geometry": {"type": "Point", "coordinates": [-3.4381627, 40.3007913]}, "properties": {"tipo": "centro", "nombre": "Arganda del Rey"}}]}