{"type": "FeatureCollection", "metadata": {"generado": "2026-10-01", "municipio": "Arganda del Rey", "source": "OpenStreetMap via Overpass API (overpass-api.de/api/interpreter)", "url": "https://overpass-api.de/api/interpreter", "license": "ODbL 1.0 (Open Data Commons Open Database License)", "attribution": "© OpenStreetMap contributors"}, "features": [{"type": "Feature", "geometry": {"type": "Polygon", "coordinates": [[[-3.4620259, 40.3107198], [-3.4546035, 40.3071935], [-3.454117, 40.306966], [-3.4525222, 40.3062658], [-3.4505548, 40.3053755], [-3.45039, 40.3053026], [-3.4514935, 40.3048489], [-3.451829, 40.3047522], [-3.4516232, 40.3044009], [-3.4514349, 40.3041314], [-3.4513917, 40.3040322], [-3.4515011, 40.3039667], [-3.4515342, 40.3039382], [-3.4515534, 40.303858], [-3.4515133, 40.3038486], [-3.4514802, 40.3038363], [-3.4514626, 40.3038186], [-3.4514496, 40.3038024], [-3.4514487, 40.3037832], [-3.4514516, 40.3037703], [-3.4514833, 40.303732], [-3.4515545, 40.3037019], [-3.4517438, 40.3036383], [-3.4519111, 40.3035642], [-3.4519934, 40.3035057], [-3.4523479, 40.3034688], [-3.452433, 40.303403], [-3.4524982, 40.3033394], [-3.4525595, 40.3033065], [-3.452837, 40.303247], [-3.4530231, 40.3031923], [-3.453302, 40.3030757], [-3.4535567, 40.3029228], [-3.4539745, 40.302526], [-3.4545733, 40.3017309], [-3.4551448, 40.3009855], [-3.455361, 40.3008467], [-3.4558902, 40.3002416], [-3.4559866, 40.3002185], [-3.4563409, 40.3002044], [-3.4567173, 40.3001778], [-3.4570556, 40.3001317], [-3.4572735, 40.300074], [-3.457494, 40.2999773], [-3.4576294, 40.2999039], [-3.4577843, 40.30006], [-3.4577388, 40.3003423], [-3.4586017, 40.3006939], [-3.4588016, 40.3003317], [-3.4594537, 40.3001511], [-3.4631616, 40.2986324], [-3.4643632, 40.2995292], [-3.4668094, 40.2985015], [-3.4674308, 40.2986818], [-3.4681206, 40.2986924], [-3.4683565, 40.298504], [-3.4686751, 40.2983289], [-3.4692813, 40.298051], [-3.469734, 40.2978857], [-3.4700248, 40.2978008], [-3.4707747, 40.29858], [-3.4727746, 40.2985146], [-3.4739762, 40.2999547], [-3.4764866, 40.2994045], [-3.4768797, 40.2994908], [-3.4777291, 40.2996568], [-3.477439, 40.2999477], [-3.4777288, 40.3001181], [-3.4766491, 40.3011032], [-3.4765503, 40.3010341], [-3.4759589, 40.3015715], [-3.4777099, 40.3026843], [-3.4797269, 40.3034502], [-3.4804224, 40.3036827], [-3.4815234, 40.304241], [-3.4817703, 40.3043839], [-3.4826057, 40.3050233], [-3.482956, 40.305367], [-3.4836717, 40.3059686], [-3.4842424, 40.306423], [-3.4848642, 40.3068932], [-3.4853113, 40.3071789], [-3.4859359, 40.3075325], [-3.4865357, 40.3079327], [-3.4871492, 40.3082662], [-3.4878021, 40.3085762], [-3.4881171, 40.3086796], [-3.4893543, 40.3089632], [-3.490001, 40.3091148], [-3.4902203, 40.3091897], [-3.490394, 40.3092664], [-3.4905014, 40.3093832], [-3.4904748, 40.3095092], [-3.4903519, 40.3095929], [-3.4901175, 40.309702], [-3.4895583, 40.3101667], [-3.4892927, 40.3104895], [-3.489055, 40.3108224], [-3.48871, 40.3111589], [-3.4886479, 40.3112065], [-3.4885631, 40.3112415], [-3.4885051, 40.3112724], [-3.4884633, 40.3113104], [-3.4884469, 40.3113484], [-3.4884491, 40.3113846], [-3.4884646, 40.3114185], [-3.4880525, 40.3117234], [-3.4878667, 40.3118858], [-3.4876165, 40.3120371], [-3.4875644, 40.3121137], [-3.4874273, 40.3122238], [-3.4866822, 40.3127902], [-3.4866124, 40.312848], [-3.4865835, 40.3128797], [-3.4865519, 40.3129296], [-3.486343, 40.3130751], [-3.4862678, 40.313131], [-3.4862293, 40.3130897], [-3.4861682, 40.3130176], [-3.486109, 40.3129757], [-3.4850751, 40.3123515], [-3.4850045, 40.3123162], [-3.4833197, 40.3116233], [-3.4829319, 40.3117952], [-3.4824891, 40.3118676], [-3.4816339, 40.3119861], [-3.4814282, 40.3119763], [-3.4807797, 40.3114695], [-3.4803299, 40.31184], [-3.4801621, 40.3120583], [-3.4798067, 40.3115036], [-3.4792667, 40.3113524], [-3.4790709, 40.3115172], [-3.4785341, 40.3111098], [-3.478382, 40.3111273], [-3.4783494, 40.3110999], [-3.4790912, 40.3103858], [-3.4795393, 40.3099545], [-3.474808, 40.3087269], [-3.4741618, 40.3104405], [-3.4761408, 40.3109305], [-3.4751201, 40.3132095], [-3.4750733, 40.3133139], [-3.4750272, 40.3134169], [-3.4749371, 40.3137188], [-3.4740414, 40.3135102], [-3.473638, 40.3134257], [-3.4730089, 40.3132613], [-3.4728103, 40.3133929], [-3.4725339, 40.3134234], [-3.4724533, 40.3134618], [-3.4722404, 40.3133809], [-3.4720076, 40.3133008], [-3.4717213, 40.3132536], [-3.471533, 40.3131284], [-3.4712541, 40.3128192], [-3.4710233, 40.3125631], [-3.4710241, 40.3124524], [-3.471028, 40.311926], [-3.4713417, 40.3118053], [-3.4714042, 40.3115717], [-3.470337, 40.3111911], [-3.4693387, 40.3103773], [-3.4686847, 40.3094848], [-3.4679962, 40.3097998], [-3.467411, 40.3091698], [-3.4660197, 40.3081367], [-3.4652129, 40.3088436], [-3.4656077, 40.30904], [-3.4663802, 40.3100479], [-3.4661854, 40.3102658], [-3.4661227, 40.3103359], [-3.4662932, 40.3108848], [-3.4664317, 40.3113308], [-3.4650538, 40.3117052], [-3.4655534, 40.3122188], [-3.4620259, 40.3107198]]]}, "properties": {"id": "relation/16125038", "nombre": "Polígono Industrial El Guijar", "nombre_osm": "Polígono Industrial El Guija", "uso": "industrial", "area_m2": 3140723.6, "vertices_fuera_termino": 0, "cruza_limite": false, "dist_via_rapida_m": 73.3, "via_rapida": "N-IIIa", "dist_centro_urbano_m": 2913.1, "pois_dentro": 3}}, {"type": "Feature", "geometry": {"type": "Polygon", "coordinates": [[[-3.4620259, 40.3107198], [-3.4605559, 40.3125336], [-3.4590068, 40.3139773], [-3.4585421, 40.3130979], [-3.4578001, 40.3134549], [-3.456802, 40.3125935], [-3.4543129, 40.3138681], [-3.4558921, 40.3158341], [-3.4572049, 40.3174434], [-3.4577199, 40.3180782], [-3.4584559, 40.3188567], [-3.4597455, 40.3187981], [-3.4635478, 40.3193544], [-3.4659453, 40.3195658], [-3.4661438, 40.3196196], [-3.4659682, 40.3200415], [-3.4668351, 40.3207417], [-3.4679681, 40.3211605], [-3.468114, 40.3205781], [-3.4682842, 40.3201151], [-3.4684714, 40.3198538], [-3.4684543, 40.3196097], [-3.4679522, 40.319563], [-3.4678823, 40.3194198], [-3.4684735, 40.3191635], [-3.4690859, 40.3188494], [-3.4692596, 40.3187119], [-3.4695204, 40.3185558], [-3.4697535, 40.3184347], [-3.4702406, 40.3182285], [-3.4706365, 40.3181007], [-3.4710423, 40.3180167], [-3.4713078, 40.3179458], [-3.4716749, 40.3179314], [-3.4729928, 40.3179307], [-3.4729916, 40.3179913], [-3.4745396, 40.3180093], [-3.4745257, 40.3179603], [-3.474449, 40.3178628], [-3.4742766, 40.3177056], [-3.4739533, 40.3174744], [-3.4734664, 40.3172185], [-3.4729932, 40.3170205], [-3.4720965, 40.3167497], [-3.4709292, 40.3161869], [-3.4695388, 40.3153296], [-3.4686376, 40.3147798], [-3.4680968, 40.3141516], [-3.4672557, 40.3132157], [-3.4670412, 40.3131094], [-3.4659081, 40.3125481], [-3.4656249, 40.3123125], [-3.4620259, 40.3107198]]]}, "properties": {"id": "way/1191938484", "nombre": null, "nombre_osm": null, "uso": "industrial", "area_m2": 902014.2, "vertices_fuera_termino": 0, "cruza_limite": false, "dist_via_rapida_m": 1078.5, "via_rapida": "N-IIIa", "dist_centro_urbano_m": 3031.1, "pois_dentro": 1}}, {"type": "Feature", "geometry": {"type": "Polygon", "coordinates": [[[-3.5097878, 40.3151069], [-3.5074747, 40.3152543], [-3.506163, 40.3132216], [-3.5052994, 40.3130061], [-3.5028306, 40.3123899], [-3.5025378, 40.3097805], [-3.5041975, 40.3071804], [-3.5046949, 40.3063996], [-3.5049957, 40.3063197], [-3.506818, 40.3072174], [-3.5083939, 40.3067906], [-3.5092854, 40.3066014], [-3.5095447, 40.3086403], [-3.5095471, 40.3086592], [-3.5098095, 40.3113545], [-3.5099949, 40.3127379], [-3.5099587, 40.3127451], [-3.5099345, 40.3127676], [-3.5099291, 40.3127881], [-3.5100044, 40.3132661], [-3.5100111, 40.3133087], [-3.5100259, 40.3133405], [-3.5100702, 40.3133876], [-3.5101025, 40.3133948], [-3.5101367, 40.3138792], [-3.5101519, 40.3144009], [-3.5100454, 40.3148067], [-3.5097878, 40.3151069]]]}, "properties": {"id": "way/344600814", "nombre": "Centro Emisor de Onda Corta de Radio Nacional de España de Arganda", "nombre_osm": "Centro Emisor de Onda Corta de Radio Nacional de España de Arganda", "uso": "industrial", "area_m2": 447106.4, "vertices_fuera_termino": 2, "cruza_limite": true, "dist_via_rapida_m": 527.1, "via_rapida": "A-3", "dist_centro_urbano_m": 6063.9, "pois_dentro": 0}}, {"type": "Feature", "geometry": {"type": "Polygon", "coordinates": [[[-3.4125677, 40.2807807], [-3.4122822, 40.2813295], [-3.4103151, 40.2822332], [-3.4091901, 40.2816412], [-3.408145, 40.2815776], [-3.4079249, 40.281909], [-3.4067222, 40.2816548], [-3.405401, 40.2815157], [-3.4044924, 40.2820073], [-3.404052, 40.2818629], [-3.4059708, 40.2794454], [-3.4068238, 40.2777168], [-3.4071367, 40.2772322], [-3.407374, 40.2764121], [-3.4077861, 40.275569], [-3.4082821, 40.2756725], [-3.4088167, 40.2763556], [-3.4125677, 40.2807807]]]}, "properties": {"id": "way/1234484928", "nombre": null, "nombre_osm": null, "uso": "industrial", "area_m2": 260026.0, "vertices_fuera_termino": 0, "cruza_limite": false, "dist_via_rapida_m": 270.8, "via_rapida": "N-IIIa", "dist_centro_urbano_m": 3459.9, "pois_dentro": 0}}, {"type": "Feature", "geometry": {"type": "Polygon", "coordinates": [[[-3.3783035, 40.2748599], [-3.3778729, 40.274855], [-3.3758484, 40.2729207], [-3.3772092, 40.2703064], [-3.3774877, 40.2699627], [-3.3778725, 40.2697397], [-3.3789078, 40.2698032], [-3.379307, 40.2698271], [-3.3799055, 40.2699899], [-3.3815308, 40.2719801], [-3.3810137, 40.2724677], [-3.3783035, 40.2748599]]]}, "properties": {"id": "way/35983696", "nombre": "Centros de control Hispasat", "nombre_osm": "Centros de control Hispasat", "uso": "industrial", "area_m2": 166322.2, "vertices_fuera_termino": 0, "cruza_limite": false, "dist_via_rapida_m": 1129.5, "via_rapida": "A-3", "dist_centro_urbano_m": 5992.0, "pois_dentro": 0}}, {"type": "Feature", "geometry": {"type": "Polygon", "coordinates": [[[-3.5067148, 40.3014496], [-3.5059772, 40.3024454], [-3.5056981, 40.3030735], [-3.5056625, 40.3033054], [-3.5052841, 40.3046578], [-3.5051988, 40.3049153], [-3.5048332, 40.306065], [-3.5049957, 40.3063197], [-3.5046949, 40.3063996], [-3.5041975, 40.3071804], [-3.50365, 40.306987], [-3.5029446, 40.306722], [-3.5029793, 40.3062647], [-3.5028751, 40.3057916], [-3.5034965, 40.3059108], [-3.5036994, 40.3053244], [-3.5046114, 40.3054429], [-3.5047356, 40.3049292], [-3.5047452, 40.3045157], [-3.5046641, 40.3039419], [-3.5037051, 40.3038462], [-3.5018977, 40.3031824], [-3.5023035, 40.3028955], [-3.5029452, 40.3023948], [-3.5043247, 40.3016071], [-3.5046567, 40.301444], [-3.5049518, 40.3012471], [-3.5056083, 40.3011345], [-3.5060583, 40.3013146], [-3.5067148, 40.3014496]]]}, "properties": {"id": "way/1328634876", "nombre": "Planta de Asfalto Asfalpasa", "nombre_osm": "Planta de Asfalto Asfalpasa", "uso": "industrial", "area_m2": 102422.8, "vertices_fuera_termino": 0, "cruza_limite": false, "dist_via_rapida_m": 1199.8, "via_rapida": "A-3", "dist_centro_urbano_m": 5636.7, "pois_dentro": 0}}, {"type": "Feature", "geometry": {"type": "Polygon", "coordinates": [[[-3.4931689, 40.2966174], [-3.4881478, 40.2973048], [-3.4880705, 40.295642], [-3.4895897, 40.2955373], [-3.489461, 40.2947059], [-3.4907485, 40.2945946], [-3.4931689, 40.2966174]]]}, "properties": {"id": "way/35817391", "nombre": null, "nombre_osm": null, "uso": "industrial", "area_m2": 76048.8, "vertices_fuera_termino": 0, "cruza_limite": false, "dist_via_rapida_m": 285.0, "via_rapida": "M-506", "dist_centro_urbano_m": 4458.7, "pois_dentro": 0}}, {"type": "Feature", "geometry": {"type": "Polygon", "coordinates": [[[-3.4948137, 40.303256], [-3.4947261, 40.3036791], [-3.4944049, 40.3037199], [-3.4951106, 40.304143], [-3.4957093, 40.303976], [-3.4957774, 40.3039797], [-3.4964004, 40.3043583], [-3.4965123, 40.3043509], [-3.4965501, 40.3043112], [-3.496641, 40.3041843], [-3.4981525, 40.3020719], [-3.4980989, 40.3019977], [-3.4976414, 40.3020496], [-3.4972326, 40.3021016], [-3.4966534, 40.3020719], [-3.4960159, 40.3020422], [-3.4955097, 40.3019606], [-3.495354, 40.3019828], [-3.4953102, 40.301916], [-3.4947602, 40.3018121], [-3.4945899, 40.301801], [-3.4943076, 40.3018306], [-3.4939085, 40.3019234], [-3.4934997, 40.3020162], [-3.4931249, 40.3020756], [-3.4930762, 40.3020942], [-3.4931784, 40.302161], [-3.4948137, 40.303256]]]}, "properties": {"id": "way/1328634875", "nombre": null, "nombre_osm": null, "uso": "industrial", "area_m2": 65212.4, "vertices_fuera_termino": 0, "cruza_limite": false, "dist_via_rapida_m": 654.4, "via_rapida": "A-3", "dist_centro_urbano_m": 4860.8, "pois_dentro": 0}}, {"type": "Feature", "geometry": {"type": "Polygon", "coordinates": [[[-3.478436, 40.3195967], [-3.479054, 40.319191], [-3.4806848, 40.3191583], [-3.4818521, 40.3190601], [-3.4821376, 40.3202447], [-3.4823618, 40.3209498], [-3.4812685, 40.3211592], [-3.4814267, 40.3216392], [-3.4811635, 40.3216896], [-3.4807262, 40.321323], [-3.4803846, 40.3212152], [-3.478436, 40.3195967]]]}, "properties": {"id": "way/28341750", "nombre": null, "nombre_osm": null, "uso": "industrial", "area_m2": 56360.9, "vertices_fuera_termino": 2, "cruza_limite": true, "dist_via_rapida_m": 1088.0, "via_rapida": "N-IIIa", "dist_centro_urbano_m": 4211.5, "pois_dentro": 0}}, {"type": "Feature", "geometry": {"type": "Polygon", "coordinates": [[[-3.5141373, 40.3164853], [-3.5148935, 40.3167995], [-3.5160732, 40.3191603], [-3.5150574, 40.3194423], [-3.5148443, 40.319373], [-3.5140439, 40.3180478], [-3.5138154, 40.3180805], [-3.5135311, 40.3182409], [-3.5127242, 40.3176846], [-3.5124609, 40.3175182], [-3.5123981, 40.317364], [-3.5126988, 40.3165922], [-3.5138833, 40.3170083], [-3.5141373, 40.3164853]]]}, "properties": {"id": "way/30111153", "nombre": "Polígono Industrial Puente de Arganda", "nombre_osm": "Polígono Industrial Puente de Arganda", "uso": "industrial", "area_m2": 48812.4, "vertices_fuera_termino": 10, "cruza_limite": true, "dist_via_rapida_m": 87.5, "via_rapida": "A-3", "dist_centro_urbano_m": 6692.5, "pois_dentro": 0}}, {"type": "Feature", "geometry": {"type": "Polygon", "coordinates": [[[-3.5078022, 40.2930535], [-3.5079147, 40.2930301], [-3.508094, 40.2947446], [-3.5082276, 40.2960543], [-3.5081148, 40.2960656], [-3.5075286, 40.2960976], [-3.5074179, 40.2960986], [-3.5067737, 40.2945906], [-3.506107, 40.2929082], [-3.5078022, 40.2930535]]]}, "properties": {"id": "way/28345683", "nombre": "Polígono Industrial Coto Cisneros", "nombre_osm": "Polígono Industrial Coto Cisneros", "uso": "industrial", "area_m2": 38219.4, "vertices_fuera_termino": 0, "cruza_limite": false, "dist_via_rapida_m": 1626.4, "via_rapida": "M-506", "dist_centro_urbano_m": 5927.8, "pois_dentro": 0}}, {"type": "Feature", "geometry": {"type": "Polygon", "coordinates": [[[-3.3810137, 40.2724677], [-3.382353, 40.2733584], [-3.3819501, 40.2740592], [-3.3784821, 40.274862], [-3.3783035, 40.2748599], [-3.3810137, 40.2724677]]]}, "properties": {"id": "way/351737611", "nombre": "Telepuerto Internacional de Arganda", "nombre_osm": "Telepuerto Internacional de Arganda", "uso": "industrial", "area_m2": 37741.2, "vertices_fuera_termino": 0, "cruza_limite": false, "dist_via_rapida_m": 1165.0, "via_rapida": "R-3", "dist_centro_urbano_m": 5744.9, "pois_dentro": 0}}, {"type": "Feature", "geometry": {"type": "Polygon", "coordinates": [[[-3.4377975, 40.3070536], [-3.4377707, 40.3055768], [-3.4369338, 40.3055727], [-3.4368821, 40.3049516], [-3.4367951, 40.3049984], [-3.4366566, 40.305047], [-3.436481, 40.3050613], [-3.4363444, 40.3050467], [-3.4362439, 40.3051313], [-3.4360272, 40.3052373], [-3.4358234, 40.3055154], [-3.4357322, 40.3057077], [-3.4357644, 40.3068082], [-3.4359136, 40.3069498], [-3.4360058, 40.3070373], [-3.4361291, 40.3071682], [-3.4363115, 40.3072254], [-3.4366066, 40.3072173], [-3.4367353, 40.3071559], [-3.4368319, 40.3070495], [-3.4372718, 40.3070536], [-3.4377975, 40.3070536]]]}, "properties": {"id": "way/272527072", "nombre": "Recinto Ferial Arganda del Rey", "nombre_osm": "Recinto Ferial Arganda del Rey", "uso": "commercial", "area_m2": 33545.8, "vertices_fuera_termino": 0, "cruza_limite": false, "dist_via_rapida_m": 130.2, "via_rapida": "N-IIIa", "dist_centro_urbano_m": 612.3, "pois_dentro": 0}}, {"type": "Feature", "geometry": {"type": "Polygon", "coordinates": [[[-3.4088924, 40.2721565], [-3.4070981, 40.2709747], [-3.4074522, 40.2705], [-3.4069908, 40.2700743], [-3.4047531, 40.2714664], [-3.4061164, 40.2724758], [-3.4063168, 40.271807], [-3.4068176, 40.2712363], [-3.4088591, 40.2722542], [-3.4087883, 40.27221], [-3.4088924, 40.2721565]]]}, "properties": {"id": "way/1278936483", "nombre": "Tricalsa", "nombre_osm": "Tricalsa", "uso": "industrial", "area_m2": 29303.5, "vertices_fuera_termino": 0, "cruza_limite": false, "dist_via_rapida_m": 155.9, "via_rapida": "N-IIIa", "dist_centro_urbano_m": 4169.4, "pois_dentro": 0}}, {"type": "Feature", "geometry": {"type": "Polygon", "coordinates": [[[-3.5117117, 40.3036997], [-3.5113278, 40.3048661], [-3.5112444, 40.3048411], [-3.5110474, 40.30513], [-3.5110282, 40.3051987], [-3.5102148, 40.3048754], [-3.5104267, 40.3045558], [-3.5094507, 40.30421], [-3.509145, 40.30421], [-3.5090859, 40.3038791], [-3.5093767, 40.3038716], [-3.5092584, 40.3027926], [-3.5094162, 40.3027964], [-3.5099831, 40.303146], [-3.5101014, 40.3032325], [-3.510198, 40.3033532], [-3.5103331, 40.3035934], [-3.5103134, 40.3036761], [-3.5105896, 40.3036764], [-3.5109114, 40.3036846], [-3.5117117, 40.3036997]]]}, "properties": {"id": "way/1328634832", "nombre": "Emisora de Onda Corta", "nombre_osm": "Emisora de Onda Corta", "uso": "industrial", "area_m2": 27592.4, "vertices_fuera_termino": 0, "cruza_limite": false, "dist_via_rapida_m": 1387.4, "via_rapida": "A-3", "dist_centro_urbano_m": 6129.7, "pois_dentro": 0}}, {"type": "Feature", "geometry": {"type": "Polygon", "coordinates": [[[-3.4873839, 40.2974881], [-3.4868002, 40.297619], [-3.4856844, 40.2981558], [-3.4844399, 40.297475], [-3.4856844, 40.2964407], [-3.4859419, 40.2965847], [-3.4863711, 40.2964931], [-3.4873839, 40.2974881]]]}, "properties": {"id": "way/35817399", "nombre": null, "nombre_osm": null, "uso": "industrial", "area_m2": 25588.1, "vertices_fuera_termino": 0, "cruza_limite": false, "dist_via_rapida_m": 394.9, "via_rapida": "A-3", "dist_centro_urbano_m": 4094.2, "pois_dentro": 0}}, {"type": "Feature", "geometry": {"type": "Polygon", "coordinates": [[[-3.457868, 40.3202947], [-3.4578165, 40.3211912], [-3.4570612, 40.3215119], [-3.4561943, 40.3212828], [-3.4565719, 40.3207724], [-3.4566234, 40.3202489], [-3.4578937, 40.3202293], [-3.457868, 40.3202947]]]}, "properties": {"id": "way/32673026", "nombre": null, "nombre_osm": null, "uso": "industrial", "area_m2": 14697.9, "vertices_fuera_termino": 0, "cruza_limite": false, "dist_via_rapida_m": 1232.5, "via_rapida": "R-3", "dist_centro_urbano_m": 2744.0, "pois_dentro": 0}}, {"type": "Feature", "geometry": {"type": "Polygon", "coordinates": [[[-3.4798752, 40.3100906], [-3.4797751, 40.3107111], [-3.4796713, 40.310888], [-3.4792449, 40.3113462], [-3.4792667, 40.3113524], [-3.4798067, 40.3115036], [-3.4802324, 40.311011], [-3.480789, 40.3105461], [-3.4809437, 40.3103372], [-3.4798833, 40.3100677], [-3.4798752, 40.3100906]]]}, "properties": {"id": "way/632161017", "nombre": null, "nombre_osm": null, "uso": "commercial", "area_m2": 9642.1, "vertices_fuera_termino": 0, "cruza_limite": false, "dist_via_rapida_m": 80.0, "via_rapida": "N-IIIa", "dist_centro_urbano_m": 3710.7, "pois_dentro": 0}}, {"type": "Feature", "geometry": {"type": "Polygon", "coordinates": [[[-3.4943507, 40.3083719], [-3.4946515, 40.3087223], [-3.493692, 40.3091563], [-3.4935457, 40.309209], [-3.4932448, 40.3092245], [-3.493009, 40.3091873], [-3.4927001, 40.3091439], [-3.4924683, 40.3091408], [-3.4943507, 40.3083719]]]}, "properties": {"id": "way/394119559", "nombre": null, "nombre_osm": null, "uso": "industrial", "area_m2": 7177.9, "vertices_fuera_termino": 0, "cruza_limite": false, "dist_via_rapida_m": 129.5, "via_rapida": "A-3", "dist_centro_urbano_m": 4783.8, "pois_dentro": 0}}, {"type": "Feature", "geometry": {"type": "Polygon", "coordinates": [[[-3.4736614, 40.2572703], [-3.474045, 40.2570328], [-3.4736319, 40.2567238], [-3.4731035, 40.2570492], [-3.4734361, 40.2573685], [-3.4736614, 40.2572703]]]}, "properties": {"id": "way/376392665", "nombre": null, "nombre_osm": null, "uso": "industrial", "area_m2": 2923.3, "vertices_fuera_termino": 0, "cruza_limite": false, "dist_via_rapida_m": 2706.7, "via_rapida": "A-3", "dist_centro_urbano_m": 5711.4, "pois_dentro": 0}}, {"type": "Feature", "geometry": {"type": "Polygon", "coordinates": [[[-3.4816105, 40.3107877], [-3.48234, 40.3110944], [-3.4825067, 40.3107033], [-3.4817433, 40.3105267], [-3.4816105, 40.3107877]]]}, "properties": {"id": "way/632161021", "nombre": null, "nombre_osm": null, "uso": "commercial", "area_m2": 2635.9, "vertices_fuera_termino": 0, "cruza_limite": false, "dist_via_rapida_m": 34.4, "via_rapida": "N-IIIa", "dist_centro_urbano_m": 3876.4, "pois_dentro": 0}}, {"type": "Feature", "geometry": {"type": "Polygon", "coordinates": [[[-3.481083, 40.3103441], [-3.4809802, 40.3105481], [-3.4816105, 40.3107877], [-3.4817433, 40.3105267], [-3.481083, 40.3103441]]]}, "properties": {"id": "way/632161019", "nombre": null, "nombre_osm": null, "uso": "commercial", "area_m2": 1649.0, "vertices_fuera_termino": 0, "cruza_limite": false, "dist_via_rapida_m": 22.6, "via_rapida": "N-IIIa", "dist_centro_urbano_m": 3814.0, "pois_dentro": 0}}, {"type": "Feature", "geometry": {"type": "Polygon", "coordinates": [[[-3.4687324, 40.3271944], [-3.4681848, 40.3272109], [-3.4681701, 40.3269689], [-3.468715, 40.32694], [-3.4687324, 40.3271944]]]}, "properties": {"id": "way/553325774", "nombre": null, "nombre_osm": null, "uso": "industrial", "area_m2": 1281.4, "vertices_fuera_termino": 0, "cruza_limite": false, "dist_via_rapida_m": 1718.3, "via_rapida": "R-3", "dist_centro_urbano_m": 3895.6, "pois_dentro": 0}}]}